{
  "type": "FeatureCollection",
  "generator": "overpass-ide",
  "copyright": "The data included in this document is from www.openstreetmap.org. The data is made available under ODbL.",
  "timestamp": "2022-08-17T00:47:54Z",
  "features": [
    {
      "type": "Feature",
      "properties": {
        "@id": "way/131827368",
        "addr:city": "Nairobi",
        "addr:street": "Ngara Road",
        "amenity": "fuel",
        "brand": "Total",
        "brand:wikidata": "Q154037",
        "brand:wikipedia": "fr:Total (entreprise)",
        "name": "Total"
      },
      "geometry": {
        "type": "Polygon",
        "coordinates": [
          [
            [
              36.8298164,
              -1.2775227
            ],
            [
              36.8297392,
              -1.2776633
            ],
            [
              36.8298757,
              -1.2777382
            ],
            [
              36.8299529,
              -1.2775976
            ],
            [
              36.8298164,
              -1.2775227
            ]
          ]
        ]
      },
      "id": "way/131827368"
    },
    {
      "type": "Feature",
      "properties": {
        "@id": "way/133157675",
        "addr:city": "Nairobi",
        "addr:street": "Lusaka Road",
        "amenity": "fuel",
        "brand": "Total",
        "brand:wikidata": "Q154037",
        "name": "Total"
      },
      "geometry": {
        "type": "Polygon",
        "coordinates": [
          [
            [
              36.8326687,
              -1.3013377
            ],
            [
              36.8327115,
              -1.3014218
            ],
            [
              36.8327465,
              -1.3014906
            ],
            [
              36.8329637,
              -1.301378
            ],
            [
              36.8329243,
              -1.3013107
            ],
            [
              36.8328725,
              -1.3012224
            ],
            [
              36.8328203,
              -1.3012519
            ],
            [
              36.8326878,
              -1.3013269
            ],
            [
              36.8326687,
              -1.3013377
            ]
          ]
        ]
      },
      "id": "way/133157675"
    },
    {
      "type": "Feature",
      "properties": {
        "@id": "way/244666495",
        "addr:city": "Karatina",
        "addr:street": "Kirigu Primary School Road",
        "amenity": "fuel",
        "brand": "Total",
        "brand:wikidata": "Q154037",
        "brand:wikipedia": "fr:Total (entreprise)",
        "name": "Total"
      },
      "geometry": {
        "type": "Polygon",
        "coordinates": [
          [
            [
              37.122408,
              -0.4822867
            ],
            [
              37.1224202,
              -0.4824754
            ],
            [
              37.1225556,
              -0.4825016
            ],
            [
              37.1225675,
              -0.482331
            ],
            [
              37.122408,
              -0.4822867
            ]
          ]
        ]
      },
      "id": "way/244666495"
    },
    {
      "type": "Feature",
      "properties": {
        "@id": "way/247938335",
        "addr:city": "Nairobi",
        "addr:street": "Ngong Road",
        "amenity": "fuel",
        "brand": "Total",
        "brand:wikidata": "Q154037",
        "name": "Total"
      },
      "geometry": {
        "type": "Polygon",
        "coordinates": [
          [
            [
              36.7886441,
              -1.2998823
            ],
            [
              36.7886474,
              -1.3000094
            ],
            [
              36.7887212,
              -1.3000075
            ],
            [
              36.7887179,
              -1.2998804
            ],
            [
              36.7886441,
              -1.2998823
            ]
          ]
        ]
      },
      "id": "way/247938335"
    },
    {
      "type": "Feature",
      "properties": {
        "@id": "way/310935382",
        "addr:city": "Isinya",
        "addr:street": "Nairobi-Namanga Road",
        "amenity": "fuel",
        "brand": "Total",
        "brand:wikidata": "Q154037",
        "brand:wikipedia": "fr:Total (entreprise)",
        "name": "Total"
      },
      "geometry": {
        "type": "Polygon",
        "coordinates": [
          [
            [
              36.8498806,
              -1.6749925
            ],
            [
              36.8498307,
              -1.675237
            ],
            [
              36.8501077,
              -1.6753418
            ],
            [
              36.8503151,
              -1.6750472
            ],
            [
              36.8498806,
              -1.6749925
            ]
          ]
        ]
      },
      "id": "way/310935382"
    },
    {
      "type": "Feature",
      "properties": {
        "@id": "way/488459882",
        "addr:city": "Nakuru",
        "addr:street": "Mburu Gichua Road",
        "amenity": "fuel",
        "brand": "Total",
        "brand:wikidata": "Q154037",
        "brand:wikipedia": "fr:TotalEnergies",
        "building": "yes",
        "name": "Total",
        "source": "microsoft/BuildingFootprints"
      },
      "geometry": {
        "type": "Polygon",
        "coordinates": [
          [
            [
              36.0746126,
              -0.2839735
            ],
            [
              36.074572,
              -0.2839827
            ],
            [
              36.0745955,
              -0.2840861
            ],
            [
              36.074719,
              -0.284058
            ],
            [
              36.0746668,
              -0.2838287
            ],
            [
              36.074584,
              -0.2838476
            ],
            [
              36.0746126,
              -0.2839735
            ]
          ]
        ]
      },
      "id": "way/488459882"
    },
    {
      "type": "Feature",
      "properties": {
        "@id": "way/488570494",
        "addr:city": "Nakuru",
        "addr:street": "Old Nairobi Road",
        "amenity": "fuel",
        "brand": "Total",
        "brand:wikidata": "Q154037",
        "brand:wikipedia": "fr:TotalEnergies",
        "name": "Total"
      },
      "geometry": {
        "type": "Polygon",
        "coordinates": [
          [
            [
              36.0965368,
              -0.2824132
            ],
            [
              36.0966227,
              -0.2824186
            ],
            [
              36.0966281,
              -0.282031
            ],
            [
              36.0963478,
              -0.2820283
            ],
            [
              36.0963585,
              -0.2821651
            ],
            [
              36.0964376,
              -0.2822389
            ],
            [
              36.0965368,
              -0.2824132
            ]
          ]
        ]
      },
      "id": "way/488570494"
    },
    {
      "type": "Feature",
      "properties": {
        "@id": "way/1021368817",
        "amenity": "fuel",
        "brand": "Total",
        "brand:wikidata": "Q154037",
        "brand:wikipedia": "fr:TotalEnergies",
        "name": "Total"
      },
      "geometry": {
        "type": "Polygon",
        "coordinates": [
          [
            [
              36.0742549,
              -0.2849887
            ],
            [
              36.074285,
              -0.2851196
            ],
            [
              36.0743498,
              -0.2851068
            ],
            [
              36.0743203,
              -0.2849726
            ],
            [
              36.0742549,
              -0.2849887
            ]
          ]
        ]
      },
      "id": "way/1021368817"
    },
    {
      "type": "Feature",
      "properties": {
        "@id": "way/1024842927",
        "addr:city": "Nakuru",
        "addr:street": "Old Nairobi Road",
        "amenity": "fuel",
        "brand": "Total",
        "brand:wikidata": "Q154037",
        "brand:wikipedia": "fr:Total (entreprise)",
        "building": "yes",
        "name": "Total",
        "source": "microsoft/BuildingFootprints"
      },
      "geometry": {
        "type": "Polygon",
        "coordinates": [
          [
            [
              36.1164252,
              -0.2894678
            ],
            [
              36.1163562,
              -0.2896479
            ],
            [
              36.1164253,
              -0.2896743
            ],
            [
              36.1164934,
              -0.2894966
            ],
            [
              36.1165366,
              -0.2895131
            ],
            [
              36.1165577,
              -0.2894581
            ],
            [
              36.1163952,
              -0.2893959
            ],
            [
              36.116375,
              -0.2894486
            ],
            [
              36.1164252,
              -0.2894678
            ]
          ]
        ]
      },
      "id": "way/1024842927"
    },
    {
      "type": "Feature",
      "properties": {
        "@id": "way/1026283398",
        "addr:city": "Nakuru",
        "addr:street": "Old Nairobi Road",
        "amenity": "fuel",
        "brand": "Total",
        "brand:wikidata": "Q154037",
        "brand:wikipedia": "fr:Total (entreprise)",
        "building": "yes",
        "name": "Total",
        "source": "microsoft/BuildingFootprints"
      },
      "geometry": {
        "type": "Polygon",
        "coordinates": [
          [
            [
              36.1403572,
              -0.3156097
            ],
            [
              36.1402816,
              -0.3155629
            ],
            [
              36.1401519,
              -0.3157722
            ],
            [
              36.1402275,
              -0.315819
            ],
            [
              36.1403572,
              -0.3156097
            ]
          ]
        ]
      },
      "id": "way/1026283398"
    },
    {
      "type": "Feature",
      "properties": {
        "@id": "way/1053575328",
        "addr:city": "Naivasha",
        "addr:street": "Kariuki Chotora",
        "amenity": "fuel",
        "brand": "Total",
        "brand:wikidata": "Q154037",
        "building": "yes",
        "name": "Total",
        "source": "microsoft/BuildingFootprints"
      },
      "geometry": {
        "type": "Polygon",
        "coordinates": [
          [
            [
              36.432645,
              -0.7133316
            ],
            [
              36.4328337,
              -0.7132456
            ],
            [
              36.4327136,
              -0.7129823
            ],
            [
              36.4325249,
              -0.7130683
            ],
            [
              36.432645,
              -0.7133316
            ]
          ]
        ]
      },
      "id": "way/1053575328"
    },
    {
      "type": "Feature",
      "properties": {
        "@id": "way/1053597861",
        "addr:city": "Naivasha",
        "amenity": "fuel",
        "brand": "Total",
        "brand:wikidata": "Q154037",
        "brand:wikipedia": "fr:Total (entreprise)",
        "building": "yes",
        "name": "Total",
        "source": "microsoft/BuildingFootprints"
      },
      "geometry": {
        "type": "Polygon",
        "coordinates": [
          [
            [
              36.4313404,
              -0.69438
            ],
            [
              36.4314386,
              -0.6942215
            ],
            [
              36.4313417,
              -0.6941615
            ],
            [
              36.4312435,
              -0.6943199
            ],
            [
              36.4313404,
              -0.69438
            ]
          ]
        ]
      },
      "id": "way/1053597861"
    },
    {
      "type": "Feature",
      "properties": {
        "@id": "way/1054613834",
        "addr:street": "Nairobi - Nakuru Road",
        "amenity": "fuel",
        "brand": "Total",
        "brand:wikidata": "Q154037",
        "brand:wikipedia": "fr:Total (entreprise)",
        "building": "yes",
        "name": "Total",
        "name:en": "Total",
        "source": "microsoft/BuildingFootprints"
      },
      "geometry": {
        "type": "Polygon",
        "coordinates": [
          [
            [
              36.4584941,
              -0.7391636
            ],
            [
              36.4584097,
              -0.7390379
            ],
            [
              36.4582702,
              -0.7391315
            ],
            [
              36.4583547,
              -0.7392572
            ],
            [
              36.4584941,
              -0.7391636
            ]
          ]
        ]
      },
      "id": "way/1054613834"
    },
    {
      "type": "Feature",
      "properties": {
        "@id": "way/1054700470",
        "addr:city": "Naivasha",
        "addr:street": "Moi Avenue",
        "amenity": "fuel",
        "brand": "Total",
        "brand:wikidata": "Q154037",
        "brand:wikipedia": "fr:Total (entreprise)",
        "building": "yes",
        "name": "Total",
        "source": "microsoft/BuildingFootprints"
      },
      "geometry": {
        "type": "Polygon",
        "coordinates": [
          [
            [
              36.4301622,
              -0.7140057
            ],
            [
              36.4301251,
              -0.7139274
            ],
            [
              36.4299754,
              -0.7139982
            ],
            [
              36.4300125,
              -0.7140765
            ],
            [
              36.4301622,
              -0.7140057
            ]
          ]
        ]
      },
      "id": "way/1054700470"
    },
    {
      "type": "Feature",
      "properties": {
        "@id": "node/30092033",
        "addr:city": "Nairobi",
        "addr:street": "Ngong Road",
        "amenity": "fuel",
        "brand": "Total",
        "brand:wikidata": "Q154037",
        "brand:wikipedia": "fr:Total (entreprise)",
        "name": "Total"
      },
      "geometry": {
        "type": "Point",
        "coordinates": [
          36.7886658,
          -1.2999749
        ]
      },
      "id": "node/30092033"
    },
    {
      "type": "Feature",
      "properties": {
        "@id": "node/30092041",
        "addr:city": "Nairobi",
        "addr:street": "Ngong Road",
        "amenity": "fuel",
        "brand": "Total",
        "brand:wikidata": "Q154037",
        "brand:wikipedia": "fr:Total (entreprise)",
        "name": "Total"
      },
      "geometry": {
        "type": "Point",
        "coordinates": [
          36.7807689,
          -1.3004095
        ]
      },
      "id": "node/30092041"
    },
    {
      "type": "Feature",
      "properties": {
        "@id": "node/30092081",
        "addr:city": "Nairobi",
        "addr:street": "Ngong Road",
        "amenity": "fuel",
        "brand": "Total",
        "brand:wikidata": "Q154037",
        "brand:wikipedia": "fr:Total (entreprise)",
        "name": "Total",
        "operator": "Total"
      },
      "geometry": {
        "type": "Point",
        "coordinates": [
          36.7597173,
          -1.2990005
        ]
      },
      "id": "node/30092081"
    },
    {
      "type": "Feature",
      "properties": {
        "@id": "node/30324284",
        "addr:city": "Nairobi",
        "addr:street": "Parklands Road",
        "amenity": "fuel",
        "brand": "Total",
        "brand:wikidata": "Q154037",
        "brand:wikipedia": "fr:Total (entreprise)",
        "name": "Total"
      },
      "geometry": {
        "type": "Point",
        "coordinates": [
          36.8092403,
          -1.2633552
        ]
      },
      "id": "node/30324284"
    },
    {
      "type": "Feature",
      "properties": {
        "@id": "node/30695847",
        "amenity": "fuel",
        "brand": "Total",
        "brand:wikidata": "Q154037",
        "name": "Total"
      },
      "geometry": {
        "type": "Point",
        "coordinates": [
          36.8504888,
          -1.3260301
        ]
      },
      "id": "node/30695847"
    },
    {
      "type": "Feature",
      "properties": {
        "@id": "node/30695859",
        "addr:city": "Nairobi",
        "addr:street": "Mombasa Road",
        "amenity": "fuel",
        "brand": "Total",
        "brand:wikidata": "Q154037",
        "name": "Total Airport View"
      },
      "geometry": {
        "type": "Point",
        "coordinates": [
          36.8824284,
          -1.3281811
        ]
      },
      "id": "node/30695859"
    },
    {
      "type": "Feature",
      "properties": {
        "@id": "node/297300621",
        "addr:city": "Narok",
        "addr:street": "Kaplong-Narok-Maai Road",
        "amenity": "fuel",
        "brand": "Total",
        "brand:wikidata": "Q154037",
        "brand:wikipedia": "fr:Total (entreprise)",
        "name": "Total",
        "operator": "Total"
      },
      "geometry": {
        "type": "Point",
        "coordinates": [
          35.8618718,
          -1.0989817
        ]
      },
      "id": "node/297300621"
    },
    {
      "type": "Feature",
      "properties": {
        "@id": "node/299077773",
        "addr:city": "Voi",
        "amenity": "fuel",
        "brand": "Total",
        "brand:wikidata": "Q154037",
        "brand:wikipedia": "fr:Total (entreprise)",
        "name": "Total",
        "operator": "TOTAL"
      },
      "geometry": {
        "type": "Point",
        "coordinates": [
          38.5703372,
          -3.389792
        ]
      },
      "id": "node/299077773"
    },
    {
      "type": "Feature",
      "properties": {
        "@id": "node/344711462",
        "addr:city": "Voi",
        "addr:street": "Mombasa Road",
        "amenity": "fuel",
        "brand": "Total",
        "brand:wikidata": "Q154037",
        "brand:wikipedia": "fr:Total (entreprise)",
        "name": "Total voi"
      },
      "geometry": {
        "type": "Point",
        "coordinates": [
          38.5497353,
          -3.3995607
        ]
      },
      "id": "node/344711462"
    },
    {
      "type": "Feature",
      "properties": {
        "@id": "node/344969924",
        "addr:city": "Mombasa",
        "addr:street": "Abdel Nasser Road",
        "amenity": "fuel",
        "brand": "Total",
        "brand:wikidata": "Q154037",
        "brand:wikipedia": "fr:TotalEnergies",
        "name": "Total",
        "name:en": "Total - Bondeni"
      },
      "geometry": {
        "type": "Point",
        "coordinates": [
          39.6724819,
          -4.0556912
        ]
      },
      "id": "node/344969924"
    },
    {
      "type": "Feature",
      "properties": {
        "@id": "node/344971199",
        "addr:city": "Mombasa",
        "addr:street": "Nyali Road",
        "amenity": "fuel",
        "brand": "Total",
        "brand:wikidata": "Q154037",
        "brand:wikipedia": "fr:Total (entreprise)",
        "name": "Total"
      },
      "geometry": {
        "type": "Point",
        "coordinates": [
          39.6910821,
          -4.0301786
        ]
      },
      "id": "node/344971199"
    },
    {
      "type": "Feature",
      "properties": {
        "@id": "node/344972166",
        "addr:city": "Mombasa",
        "addr:street": "Malindi Road",
        "amenity": "fuel",
        "brand": "Total",
        "brand:wikidata": "Q154037",
        "brand:wikipedia": "fr:Total (entreprise)",
        "name": "Total"
      },
      "geometry": {
        "type": "Point",
        "coordinates": [
          39.7280916,
          -4.0000134
        ]
      },
      "id": "node/344972166"
    },
    {
      "type": "Feature",
      "properties": {
        "@id": "node/496772872",
        "addr:city": "Nairobi",
        "addr:housenumber": "Mbagathi Way, Nairobi",
        "addr:street": "Mbagathi Way",
        "amenity": "fuel",
        "brand": "Total",
        "brand:wikidata": "Q154037",
        "brand:wikipedia": "fr:Total (entreprise)",
        "name": "Total Mbagathi Station"
      },
      "geometry": {
        "type": "Point",
        "coordinates": [
          36.8126935,
          -1.3135116
        ]
      },
      "id": "node/496772872"
    },
    {
      "type": "Feature",
      "properties": {
        "@id": "node/521104981",
        "addr:city": "Nairobi",
        "addr:street": "Argwings Kodhek Road",
        "amenity": "fuel",
        "brand": "Total",
        "brand:wikidata": "Q154037",
        "brand:wikipedia": "fr:TotalEnergies",
        "name": "Total Hurlingam"
      },
      "geometry": {
        "type": "Point",
        "coordinates": [
          36.8021396,
          -1.2955789
        ]
      },
      "id": "node/521104981"
    },
    {
      "type": "Feature",
      "properties": {
        "@id": "node/521104991",
        "addr:city": "Nairobi",
        "addr:housenumber": "Spring Valley,",
        "addr:street": "Lower Kabete Road",
        "amenity": "fuel",
        "brand": "Total",
        "brand:wikidata": "Q154037",
        "brand:wikipedia": "fr:Total (entreprise)",
        "name": "Total"
      },
      "geometry": {
        "type": "Point",
        "coordinates": [
          36.7921602,
          -1.2540368
        ]
      },
      "id": "node/521104991"
    },
    {
      "type": "Feature",
      "properties": {
        "@id": "node/575635555",
        "addr:city": "Nairobi",
        "addr:street": "Waiyaki Way",
        "amenity": "fuel",
        "brand": "Total",
        "brand:wikidata": "Q154037",
        "brand:wikipedia": "fr:Total (entreprise)",
        "name": "Total"
      },
      "geometry": {
        "type": "Point",
        "coordinates": [
          36.7385118,
          -1.2651532
        ]
      },
      "id": "node/575635555"
    },
    {
      "type": "Feature",
      "properties": {
        "@id": "node/582803762",
        "addr:housenumber": "Langata Rd, Nairobi",
        "amenity": "fuel",
        "brand": "Total",
        "brand:wikidata": "Q154037",
        "brand:wikipedia": "fr:Total (entreprise)",
        "name": "Total",
        "name:it": "Total"
      },
      "geometry": {
        "type": "Point",
        "coordinates": [
          36.8199607,
          -1.306325
        ]
      },
      "id": "node/582803762"
    },
    {
      "type": "Feature",
      "properties": {
        "@id": "node/610893023",
        "addr:city": "Nairobi",
        "addr:street": "Mombasa Road",
        "amenity": "fuel",
        "brand": "Total",
        "brand:wikidata": "Q154037",
        "brand:wikipedia": "fr:Total (entreprise)",
        "name": "Total",
        "opening_hours": "24/7",
        "operator": "Total"
      },
      "geometry": {
        "type": "Point",
        "coordinates": [
          36.8298002,
          -1.3129433
        ]
      },
      "id": "node/610893023"
    },
    {
      "type": "Feature",
      "properties": {
        "@id": "node/642955405",
        "addr:city": "Nairobi",
        "addr:housenumber": "Aerodrome Rd, Nairobi",
        "addr:street": "Langata Road",
        "amenity": "fuel",
        "brand": "Total",
        "brand:wikidata": "Q154037",
        "brand:wikipedia": "fr:Total (entreprise)",
        "name": "Total"
      },
      "geometry": {
        "type": "Point",
        "coordinates": [
          36.8217238,
          -1.3056508
        ]
      },
      "id": "node/642955405"
    },
    {
      "type": "Feature",
      "properties": {
        "@id": "node/703562827",
        "addr:city": "Nairobi",
        "addr:street": "Kangundo Road",
        "amenity": "fuel",
        "brand": "Total",
        "brand:wikidata": "Q154037",
        "brand:wikipedia": "fr:TotalEnergies",
        "name": "Total Kangundo Road Service Station"
      },
      "geometry": {
        "type": "Point",
        "coordinates": [
          36.8830331,
          -1.2778712
        ]
      },
      "id": "node/703562827"
    },
    {
      "type": "Feature",
      "properties": {
        "@id": "node/703562828",
        "addr:city": "Nairobi",
        "addr:street": "Outer Ring Road",
        "amenity": "fuel",
        "brand": "Total",
        "brand:wikidata": "Q154037",
        "brand:wikipedia": "fr:TotalEnergies",
        "name": "Total"
      },
      "geometry": {
        "type": "Point",
        "coordinates": [
          36.8801839,
          -1.2695777
        ]
      },
      "id": "node/703562828"
    },
    {
      "type": "Feature",
      "properties": {
        "@id": "node/711491830",
        "addr:city": "Karatina",
        "addr:street": "A2",
        "amenity": "fuel",
        "brand": "Total",
        "brand:wikidata": "Q154037",
        "brand:wikipedia": "fr:Total (entreprise)",
        "name": "Total",
        "operator": "Total"
      },
      "geometry": {
        "type": "Point",
        "coordinates": [
          37.1256695,
          -0.4832931
        ]
      },
      "id": "node/711491830"
    },
    {
      "type": "Feature",
      "properties": {
        "@id": "node/711491845",
        "addr:city": "Naro Moru",
        "addr:street": "Nyeri-Nanyuki Road",
        "amenity": "fuel",
        "brand": "Total",
        "brand:wikidata": "Q154037",
        "brand:wikipedia": "fr:TotalEnergies",
        "name": "Total",
        "operator": "Total"
      },
      "geometry": {
        "type": "Point",
        "coordinates": [
          37.0223934,
          -0.1709841
        ]
      },
      "id": "node/711491845"
    },
    {
      "type": "Feature",
      "properties": {
        "@id": "node/780985917",
        "addr:city": "Mariakani",
        "addr:street": "Mombasa Road",
        "amenity": "fuel",
        "brand": "Total",
        "brand:wikidata": "Q154037",
        "brand:wikipedia": "fr:Total (entreprise)",
        "name": "Total",
        "operator": "Total"
      },
      "geometry": {
        "type": "Point",
        "coordinates": [
          39.4740044,
          -3.8642344
        ]
      },
      "id": "node/780985917"
    },
    {
      "type": "Feature",
      "properties": {
        "@id": "node/818583425",
        "addr:city": "Nairobi",
        "addr:street": "Rabai Road",
        "amenity": "fuel",
        "brand": "Total",
        "brand:wikidata": "Q154037",
        "brand:wikipedia": "fr:Total (entreprise)",
        "name": "Total",
        "operator": "Total"
      },
      "geometry": {
        "type": "Point",
        "coordinates": [
          36.8764729,
          -1.2967379
        ]
      },
      "id": "node/818583425"
    },
    {
      "type": "Feature",
      "properties": {
        "@id": "node/916799074",
        "addr:city": "Nairobi",
        "addr:street": "Outer Ring Road",
        "amenity": "fuel",
        "brand": "Total",
        "brand:wikidata": "Q154037",
        "brand:wikipedia": "fr:TotalEnergies",
        "name": "Total Donholm",
        "operator": "Total Kenya"
      },
      "geometry": {
        "type": "Point",
        "coordinates": [
          36.8880547,
          -1.3015406
        ]
      },
      "id": "node/916799074"
    },
    {
      "type": "Feature",
      "properties": {
        "@id": "node/965178138",
        "amenity": "fuel",
        "brand": "Total",
        "brand:wikidata": "Q154037",
        "brand:wikipedia": "fr:Total (entreprise)",
        "name": "Total"
      },
      "geometry": {
        "type": "Point",
        "coordinates": [
          39.6662936,
          -4.0494537
        ]
      },
      "id": "node/965178138"
    },
    {
      "type": "Feature",
      "properties": {
        "@id": "node/965178145",
        "addr:city": "Mombasa",
        "addr:street": "Mombasa Road",
        "amenity": "fuel",
        "brand": "Total",
        "brand:wikidata": "Q154037",
        "brand:wikipedia": "fr:Total (entreprise)",
        "name": "Total"
      },
      "geometry": {
        "type": "Point",
        "coordinates": [
          39.6598324,
          -4.0435398
        ]
      },
      "id": "node/965178145"
    },
    {
      "type": "Feature",
      "properties": {
        "@id": "node/1152664559",
        "addr:city": "Mombasa",
        "addr:street": "Refinery Road",
        "amenity": "fuel",
        "brand": "Total",
        "brand:wikidata": "Q154037",
        "brand:wikipedia": "fr:Total (entreprise)",
        "name": "Total Changamwe Service Station"
      },
      "geometry": {
        "type": "Point",
        "coordinates": [
          39.6336134,
          -4.0252256
        ]
      },
      "id": "node/1152664559"
    },
    {
      "type": "Feature",
      "properties": {
        "@id": "node/1239946779",
        "addr:city": "Kiserian",
        "addr:street": "Magadi Road",
        "amenity": "fuel",
        "brand": "Total",
        "brand:wikidata": "Q154037",
        "brand:wikipedia": "fr:Total (entreprise)",
        "name": "Total"
      },
      "geometry": {
        "type": "Point",
        "coordinates": [
          36.6874615,
          -1.429989
        ]
      },
      "id": "node/1239946779"
    },
    {
      "type": "Feature",
      "properties": {
        "@id": "node/1315243379",
        "amenity": "fuel",
        "brand": "Total",
        "brand:wikidata": "Q154037",
        "brand:wikipedia": "fr:Total (entreprise)",
        "name": "Total",
        "operator": "Total"
      },
      "geometry": {
        "type": "Point",
        "coordinates": [
          39.7446714,
          -3.9430375
        ]
      },
      "id": "node/1315243379"
    },
    {
      "type": "Feature",
      "properties": {
        "@id": "node/1351892673",
        "addr:city": "Nakuru",
        "addr:street": "George Morara Road",
        "amenity": "fuel",
        "brand": "Total",
        "brand:wikidata": "Q154037",
        "brand:wikipedia": "fr:TotalEnergies",
        "name": "Total Westend Service Station"
      },
      "geometry": {
        "type": "Point",
        "coordinates": [
          36.0560424,
          -0.2896667
        ]
      },
      "id": "node/1351892673"
    },
    {
      "type": "Feature",
      "properties": {
        "@id": "node/1401361350",
        "addr:city": "Sotik",
        "addr:street": "B3",
        "amenity": "fuel",
        "brand": "Total",
        "brand:wikidata": "Q154037",
        "brand:wikipedia": "fr:Total (entreprise)",
        "name": "Total"
      },
      "geometry": {
        "type": "Point",
        "coordinates": [
          35.1153599,
          -0.6866994
        ]
      },
      "id": "node/1401361350"
    },
    {
      "type": "Feature",
      "properties": {
        "@id": "node/1447402338",
        "addr:city": "Mombasa",
        "addr:street": "Mwembe Tayari Road",
        "amenity": "fuel",
        "brand": "Total",
        "brand:wikidata": "Q154037",
        "brand:wikipedia": "fr:Total (entreprise)",
        "name": "Total"
      },
      "geometry": {
        "type": "Point",
        "coordinates": [
          39.663554,
          -4.0575726
        ]
      },
      "id": "node/1447402338"
    },
    {
      "type": "Feature",
      "properties": {
        "@id": "node/1486385590",
        "addr:city": "Nairobi",
        "addr:housenumber": "P.O. Box 15593, Magadi Rd, Nairobi",
        "addr:street": "Magadi Road",
        "amenity": "fuel",
        "brand": "Total",
        "brand:wikidata": "Q154037",
        "brand:wikipedia": "fr:Total (entreprise)",
        "name": "Total"
      },
      "geometry": {
        "type": "Point",
        "coordinates": [
          36.7620542,
          -1.3570058
        ]
      },
      "id": "node/1486385590"
    },
    {
      "type": "Feature",
      "properties": {
        "@id": "node/1728805796",
        "addr:city": "Nairobi",
        "addr:street": "Waiyaki Way",
        "amenity": "fuel",
        "brand": "Total",
        "brand:wikidata": "Q154037",
        "name": "Total"
      },
      "geometry": {
        "type": "Point",
        "coordinates": [
          36.7492274,
          -1.2644846
        ]
      },
      "id": "node/1728805796"
    },
    {
      "type": "Feature",
      "properties": {
        "@id": "node/1806536539",
        "addr:city": "Eldoret",
        "addr:street": "Malaba Road",
        "amenity": "fuel",
        "brand": "Total",
        "brand:wikidata": "Q154037",
        "brand:wikipedia": "fr:TotalEnergies",
        "name": "Total",
        "operator": "Total"
      },
      "geometry": {
        "type": "Point",
        "coordinates": [
          35.292922,
          0.5117669
        ]
      },
      "id": "node/1806536539"
    },
    {
      "type": "Feature",
      "properties": {
        "@id": "node/1806584002",
        "addr:city": "Eldoret",
        "addr:street": "Eldoret -Webuye - Malaba Road",
        "amenity": "fuel",
        "brand": "Total",
        "brand:wikidata": "Q154037",
        "brand:wikipedia": "fr:TotalEnergies",
        "name": "Total petrol station Uganda Road"
      },
      "geometry": {
        "type": "Point",
        "coordinates": [
          35.2595145,
          0.5206671
        ]
      },
      "id": "node/1806584002"
    },
    {
      "type": "Feature",
      "properties": {
        "@id": "node/1814694403",
        "addr:city": "Nkubu",
        "addr:street": "Meru-Nairobi Highway",
        "amenity": "fuel",
        "brand": "Total",
        "brand:wikidata": "Q154037",
        "brand:wikipedia": "fr:Total (entreprise)",
        "name": "Total"
      },
      "geometry": {
        "type": "Point",
        "coordinates": [
          37.664105,
          -0.0658713
        ]
      },
      "id": "node/1814694403"
    },
    {
      "type": "Feature",
      "properties": {
        "@id": "node/1814694426",
        "amenity": "fuel",
        "brand": "Total",
        "brand:wikidata": "Q154037",
        "brand:wikipedia": "fr:TotalEnergies",
        "name": "Total filling station"
      },
      "geometry": {
        "type": "Point",
        "coordinates": [
          37.6571827,
          0.0473797
        ]
      },
      "id": "node/1814694426"
    },
    {
      "type": "Feature",
      "properties": {
        "@id": "node/1814694431",
        "addr:city": "Meru",
        "addr:street": "Meru-Maua Road",
        "amenity": "fuel",
        "brand": "Total",
        "brand:wikidata": "Q154037",
        "brand:wikipedia": "fr:Total (entreprise)",
        "fuel:diesel": "yes",
        "fuel:super": "yes",
        "name": "Total"
      },
      "geometry": {
        "type": "Point",
        "coordinates": [
          37.6442457,
          0.0605535
        ]
      },
      "id": "node/1814694431"
    },
    {
      "type": "Feature",
      "properties": {
        "@id": "node/1830086411",
        "addr:city": "Nanyuki",
        "addr:street": "Nanyuki-Rumuruti Road",
        "amenity": "fuel",
        "brand": "Total",
        "brand:wikidata": "Q154037",
        "brand:wikipedia": "fr:TotalEnergies",
        "name": "Total"
      },
      "geometry": {
        "type": "Point",
        "coordinates": [
          37.0789213,
          0.0156425
        ]
      },
      "id": "node/1830086411"
    },
    {
      "type": "Feature",
      "properties": {
        "@id": "node/1976967327",
        "amenity": "fuel",
        "brand": "Total",
        "brand:wikidata": "Q154037",
        "brand:wikipedia": "fr:Total (entreprise)",
        "name": "Total"
      },
      "geometry": {
        "type": "Point",
        "coordinates": [
          34.5982808,
          -0.0072608
        ]
      },
      "id": "node/1976967327"
    },
    {
      "type": "Feature",
      "properties": {
        "@id": "node/2106721537",
        "amenity": "fuel",
        "brand": "Total",
        "brand:wikidata": "Q154037",
        "brand:wikipedia": "fr:Total (entreprise)",
        "name": "Total"
      },
      "geometry": {
        "type": "Point",
        "coordinates": [
          36.8286126,
          -1.1748016
        ]
      },
      "id": "node/2106721537"
    },
    {
      "type": "Feature",
      "properties": {
        "@id": "node/2120097662",
        "addr:city": "KERICHO",
        "addr:street": "Kericho-Kisumu Highway",
        "amenity": "fuel",
        "brand": "Total",
        "brand:wikidata": "Q154037",
        "brand:wikipedia": "fr:Total (entreprise)",
        "name": "Total",
        "operator": "TOTAL KENYA"
      },
      "geometry": {
        "type": "Point",
        "coordinates": [
          35.2824137,
          -0.3720373
        ]
      },
      "id": "node/2120097662"
    },
    {
      "type": "Feature",
      "properties": {
        "@id": "node/2137912812",
        "addr:city": "Mtito Andei",
        "addr:street": "Mombasa Road",
        "amenity": "fuel",
        "brand": "Total",
        "brand:wikidata": "Q154037",
        "brand:wikipedia": "fr:Total (entreprise)",
        "name": "Total"
      },
      "geometry": {
        "type": "Point",
        "coordinates": [
          38.1653934,
          -2.6917065
        ]
      },
      "id": "node/2137912812"
    },
    {
      "type": "Feature",
      "properties": {
        "@id": "node/2337572020",
        "addr:city": "Kajiado",
        "addr:street": "Nairobi-Namanga Road",
        "amenity": "fuel",
        "brand": "Total",
        "brand:wikidata": "Q154037",
        "name": "Total Kajiado"
      },
      "geometry": {
        "type": "Point",
        "coordinates": [
          36.7888024,
          -1.8444481
        ]
      },
      "id": "node/2337572020"
    },
    {
      "type": "Feature",
      "properties": {
        "@id": "node/2380397565",
        "amenity": "fuel",
        "brand": "Total",
        "brand:wikidata": "Q154037",
        "brand:wikipedia": "fr:Total (entreprise)",
        "name": "Total"
      },
      "geometry": {
        "type": "Point",
        "coordinates": [
          39.6679695,
          -4.0556212
        ]
      },
      "id": "node/2380397565"
    },
    {
      "type": "Feature",
      "properties": {
        "@id": "node/2398737123",
        "addr:city": "Nairobi",
        "addr:street": "Waiyaki Way",
        "amenity": "fuel",
        "brand": "Total",
        "brand:wikidata": "Q154037",
        "brand:wikipedia": "fr:Total (entreprise)",
        "name": "Total"
      },
      "geometry": {
        "type": "Point",
        "coordinates": [
          36.7785531,
          -1.2592445
        ]
      },
      "id": "node/2398737123"
    },
    {
      "type": "Feature",
      "properties": {
        "@id": "node/2475359621",
        "addr:city": "Nyahururu",
        "addr:street": "Sharpe Road",
        "amenity": "fuel",
        "brand": "Total",
        "brand:wikidata": "Q154037",
        "brand:wikipedia": "fr:TotalEnergies",
        "building": "yes",
        "name": "Total Gas Station"
      },
      "geometry": {
        "type": "Point",
        "coordinates": [
          36.3656243,
          0.0352954
        ]
      },
      "id": "node/2475359621"
    },
    {
      "type": "Feature",
      "properties": {
        "@id": "node/2519603010",
        "addr:city": "Karatina",
        "addr:street": "Kirigu Primary School Road",
        "amenity": "fuel",
        "brand": "Total",
        "brand:wikidata": "Q154037",
        "name": "Total"
      },
      "geometry": {
        "type": "Point",
        "coordinates": [
          37.1221858,
          -0.482015
        ]
      },
      "id": "node/2519603010"
    },
    {
      "type": "Feature",
      "properties": {
        "@id": "node/2565429333",
        "addr:city": "Kakamega",
        "addr:street": "Kisumu-Kakamega Road",
        "amenity": "fuel",
        "brand": "Total",
        "brand:wikidata": "Q154037",
        "brand:wikipedia": "fr:Total (entreprise)",
        "name": "Total"
      },
      "geometry": {
        "type": "Point",
        "coordinates": [
          34.7531843,
          0.2780948
        ]
      },
      "id": "node/2565429333"
    },
    {
      "type": "Feature",
      "properties": {
        "@id": "node/2605936556",
        "addr:city": "Isiolo",
        "addr:street": "Isiolo-Marsabit Road",
        "amenity": "fuel",
        "brand": "Total",
        "brand:wikidata": "Q154037",
        "brand:wikipedia": "fr:TotalEnergies",
        "name": "Total"
      },
      "geometry": {
        "type": "Point",
        "coordinates": [
          37.5814772,
          0.3472166
        ]
      },
      "id": "node/2605936556"
    },
    {
      "type": "Feature",
      "properties": {
        "@id": "node/2606261994",
        "addr:city": "Eldoret",
        "addr:street": "Muliro Road",
        "amenity": "fuel",
        "brand": "Total",
        "brand:wikidata": "Q154037",
        "name": "Total"
      },
      "geometry": {
        "type": "Point",
        "coordinates": [
          35.2724369,
          0.5191499
        ]
      },
      "id": "node/2606261994"
    },
    {
      "type": "Feature",
      "properties": {
        "@id": "node/2857780230",
        "addr:city": "Kisii",
        "addr:street": "B3",
        "amenity": "fuel",
        "brand": "Total",
        "brand:wikidata": "Q154037",
        "brand:wikipedia": "fr:Total (entreprise)",
        "name": "Total"
      },
      "geometry": {
        "type": "Point",
        "coordinates": [
          34.770384,
          -0.6727526
        ]
      },
      "id": "node/2857780230"
    },
    {
      "type": "Feature",
      "properties": {
        "@id": "node/2857780235",
        "addr:city": "Kisii",
        "addr:street": "Kisii-Kilgoris Road",
        "amenity": "fuel",
        "brand": "Total",
        "brand:wikidata": "Q154037",
        "brand:wikipedia": "fr:Total (entreprise)",
        "name": "Total"
      },
      "geometry": {
        "type": "Point",
        "coordinates": [
          34.7737003,
          -0.6794126
        ]
      },
      "id": "node/2857780235"
    },
    {
      "type": "Feature",
      "properties": {
        "@id": "node/2857780236",
        "addr:city": "Kisii",
        "addr:street": "B3",
        "amenity": "fuel",
        "brand": "Total",
        "brand:wikidata": "Q154037",
        "brand:wikipedia": "fr:Total (entreprise)",
        "name": "Total"
      },
      "geometry": {
        "type": "Point",
        "coordinates": [
          34.7748261,
          -0.6792474
        ]
      },
      "id": "node/2857780236"
    },
    {
      "type": "Feature",
      "properties": {
        "@id": "node/2870116150",
        "addr:city": "Ahero",
        "addr:street": "Thousand Street",
        "amenity": "fuel",
        "brand": "Total",
        "brand:wikidata": "Q154037",
        "brand:wikipedia": "fr:Total (entreprise)",
        "name": "Total Ahero"
      },
      "geometry": {
        "type": "Point",
        "coordinates": [
          34.9173574,
          -0.1731573
        ]
      },
      "id": "node/2870116150"
    },
    {
      "type": "Feature",
      "properties": {
        "@id": "node/2871996122",
        "addr:city": "Kisumu",
        "addr:street": "Nairobi Road",
        "amenity": "fuel",
        "brand": "Total",
        "brand:wikidata": "Q154037",
        "brand:wikipedia": "fr:Total (entreprise)",
        "name": "Total"
      },
      "geometry": {
        "type": "Point",
        "coordinates": [
          34.7703,
          -0.1082717
        ]
      },
      "id": "node/2871996122"
    },
    {
      "type": "Feature",
      "properties": {
        "@id": "node/2876277613",
        "addr:city": "Athi River",
        "addr:street": "Namanga Road",
        "amenity": "fuel",
        "brand": "Total",
        "brand:wikidata": "Q154037",
        "brand:wikipedia": "fr:Total (entreprise)",
        "name": "Total",
        "operator": "Total"
      },
      "geometry": {
        "type": "Point",
        "coordinates": [
          36.953489,
          -1.5072472
        ]
      },
      "id": "node/2876277613"
    },
    {
      "type": "Feature",
      "properties": {
        "@id": "node/2912829637",
        "addr:city": "Thika",
        "addr:street": "Garissa Road",
        "amenity": "fuel",
        "brand": "Total",
        "brand:wikidata": "Q154037",
        "brand:wikipedia": "fr:Total (entreprise)",
        "name": "Total"
      },
      "geometry": {
        "type": "Point",
        "coordinates": [
          37.0675414,
          -1.0434089
        ]
      },
      "id": "node/2912829637"
    },
    {
      "type": "Feature",
      "properties": {
        "@id": "node/2918354752",
        "addr:city": "Machakos",
        "addr:street": "Chumvi-Machakos-Kitui Road",
        "amenity": "fuel",
        "brand": "Total",
        "brand:wikidata": "Q154037",
        "brand:wikipedia": "fr:TotalEnergies",
        "name": "Total Machakos Service Station"
      },
      "geometry": {
        "type": "Point",
        "coordinates": [
          37.2648,
          -1.5184376
        ]
      },
      "id": "node/2918354752"
    },
    {
      "type": "Feature",
      "properties": {
        "@id": "node/3183486949",
        "addr:city": "Nairobi",
        "addr:street": "Naivasha Road",
        "amenity": "fuel",
        "brand": "Total",
        "brand:wikidata": "Q154037",
        "brand:wikipedia": "fr:Total (entreprise)",
        "fuel:diesel": "yes",
        "fuel:kerosine": "yes",
        "fuel:lpg": "yes",
        "fuel:petrol": "yes",
        "name": "Total Uthiru",
        "operator": "Total",
        "self_service": "no"
      },
      "geometry": {
        "type": "Point",
        "coordinates": [
          36.7190483,
          -1.2629475
        ]
      },
      "id": "node/3183486949"
    },
    {
      "type": "Feature",
      "properties": {
        "@id": "node/3183497021",
        "addr:city": "Kikuyu",
        "addr:street": "A104",
        "amenity": "fuel",
        "brand": "Total",
        "brand:wikidata": "Q154037",
        "name": "Total",
        "name:en": "Total"
      },
      "geometry": {
        "type": "Point",
        "coordinates": [
          36.7006715,
          -1.2574573
        ]
      },
      "id": "node/3183497021"
    },
    {
      "type": "Feature",
      "properties": {
        "@id": "node/3388113606",
        "addr:city": "Kiambu",
        "addr:street": "Mutarakwa-Limuru Road",
        "amenity": "fuel",
        "brand": "Total",
        "brand:wikidata": "Q154037",
        "brand:wikipedia": "fr:Total (entreprise)",
        "name": "Total"
      },
      "geometry": {
        "type": "Point",
        "coordinates": [
          36.6287252,
          -1.109494
        ]
      },
      "id": "node/3388113606"
    },
    {
      "type": "Feature",
      "properties": {
        "@id": "node/3411733593",
        "addr:city": "Malava",
        "amenity": "fuel",
        "brand": "Total",
        "brand:wikidata": "Q154037",
        "brand:wikipedia": "fr:Total (entreprise)",
        "name": "Total"
      },
      "geometry": {
        "type": "Point",
        "coordinates": [
          34.8565682,
          0.4508613
        ]
      },
      "id": "node/3411733593"
    },
    {
      "type": "Feature",
      "properties": {
        "@id": "node/3411816861",
        "addr:city": "Bungoma",
        "addr:street": "Eldoret Road",
        "amenity": "fuel",
        "brand": "Total",
        "brand:wikidata": "Q154037",
        "brand:wikipedia": "fr:TotalEnergies",
        "name": "Total Kanduyi Service Station",
        "operator": "total"
      },
      "geometry": {
        "type": "Point",
        "coordinates": [
          34.5547405,
          0.5931526
        ]
      },
      "id": "node/3411816861"
    },
    {
      "type": "Feature",
      "properties": {
        "@id": "node/3683457958",
        "addr:city": "Wajir",
        "addr:street": "Isiolo-Mandera Road",
        "amenity": "fuel",
        "brand": "Total",
        "brand:wikidata": "Q154037",
        "brand:wikipedia": "fr:TotalEnergies",
        "name": "Wajir Blaza Fuel Station"
      },
      "geometry": {
        "type": "Point",
        "coordinates": [
          40.0581622,
          1.7513603
        ]
      },
      "id": "node/3683457958"
    },
    {
      "type": "Feature",
      "properties": {
        "@id": "node/3704354953",
        "addr:city": "Kiserian",
        "addr:street": "Kiserian-Isinya Road",
        "amenity": "fuel",
        "brand": "Total",
        "brand:wikidata": "Q154037",
        "brand:wikipedia": "fr:Total (entreprise)",
        "name": "Total",
        "operator": "Total"
      },
      "geometry": {
        "type": "Point",
        "coordinates": [
          36.7059792,
          -1.4589085
        ]
      },
      "id": "node/3704354953"
    },
    {
      "type": "Feature",
      "properties": {
        "@id": "node/3725299548",
        "addr:city": "Mumias",
        "addr:street": "Mumias-Bungoma Road",
        "amenity": "fuel",
        "brand": "Total",
        "brand:wikidata": "Q154037",
        "name": "Total Mumias Service Station"
      },
      "geometry": {
        "type": "Point",
        "coordinates": [
          34.4905361,
          0.3476368
        ]
      },
      "id": "node/3725299548"
    },
    {
      "type": "Feature",
      "properties": {
        "@id": "node/3884436003",
        "addr:city": "Bungoma",
        "addr:street": "Moi Avenue",
        "amenity": "fuel",
        "brand": "Total",
        "brand:wikidata": "Q154037",
        "brand:wikipedia": "fr:Total (entreprise)",
        "name": "Total"
      },
      "geometry": {
        "type": "Point",
        "coordinates": [
          34.5607406,
          0.5612517
        ]
      },
      "id": "node/3884436003"
    },
    {
      "type": "Feature",
      "properties": {
        "@id": "node/4041248507",
        "addr:city": "Lokichogio",
        "addr:street": "Lodwar-Lokichogio Road",
        "amenity": "fuel",
        "brand": "Total",
        "brand:wikidata": "Q154037",
        "brand:wikipedia": "fr:Total (entreprise)",
        "name": "Total"
      },
      "geometry": {
        "type": "Point",
        "coordinates": [
          34.361508,
          4.2005438
        ]
      },
      "id": "node/4041248507"
    },
    {
      "type": "Feature",
      "properties": {
        "@id": "node/4584325194",
        "amenity": "fuel",
        "brand": "Total",
        "brand:wikidata": "Q154037",
        "brand:wikipedia": "fr:Total (entreprise)",
        "name": "Total",
        "name:en": "Total",
        "opening_hours": "Mo-Su 08:00"
      },
      "geometry": {
        "type": "Point",
        "coordinates": [
          36.8268852,
          -1.2583495
        ]
      },
      "id": "node/4584325194"
    },
    {
      "type": "Feature",
      "properties": {
        "@id": "node/4621825373",
        "addr:city": "Nairobi",
        "addr:street": "Kiambu Road",
        "amenity": "fuel",
        "brand": "Total",
        "brand:wikidata": "Q154037",
        "brand:wikipedia": "fr:Total (entreprise)",
        "name": "Total",
        "opening_hours": "Mo-Sa 05:00-23:00"
      },
      "geometry": {
        "type": "Point",
        "coordinates": [
          36.8415079,
          -1.2298776
        ]
      },
      "id": "node/4621825373"
    },
    {
      "type": "Feature",
      "properties": {
        "@id": "node/4739695158",
        "addr:city": "Nairobi",
        "addr:street": "Kangundo Road",
        "amenity": "fuel",
        "brand": "Total",
        "brand:wikidata": "Q154037",
        "brand:wikipedia": "fr:TotalEnergies",
        "name": "Total Energies Komarock",
        "name:en": "Total",
        "operator": "Total"
      },
      "geometry": {
        "type": "Point",
        "coordinates": [
          36.9050069,
          -1.265412
        ]
      },
      "id": "node/4739695158"
    },
    {
      "type": "Feature",
      "properties": {
        "@id": "node/5000467424",
        "addr:city": "Emali",
        "addr:street": "Mombasa Road",
        "amenity": "fuel",
        "brand": "Total",
        "brand:wikidata": "Q154037",
        "name": "Total",
        "name:en": "Total"
      },
      "geometry": {
        "type": "Point",
        "coordinates": [
          37.4715321,
          -2.0797603
        ]
      },
      "id": "node/5000467424"
    },
    {
      "type": "Feature",
      "properties": {
        "@id": "node/5024418667",
        "addr:city": "Kisumu",
        "addr:street": "Kisumu-Busia Road",
        "amenity": "fuel",
        "brand": "Total",
        "brand:wikidata": "Q154037",
        "brand:wikipedia": "fr:Total (entreprise)",
        "name": "Total Busia Road Service Station",
        "operator": "Total"
      },
      "geometry": {
        "type": "Point",
        "coordinates": [
          34.7418058,
          -0.0804944
        ]
      },
      "id": "node/5024418667"
    },
    {
      "type": "Feature",
      "properties": {
        "@id": "node/5098143623",
        "addr:city": "Nairobi",
        "addr:street": "Lower Kabete Road",
        "amenity": "fuel",
        "brand": "Total",
        "brand:wikidata": "Q154037",
        "brand:wikipedia": "fr:Total (entreprise)",
        "name": "Total"
      },
      "geometry": {
        "type": "Point",
        "coordinates": [
          36.7061838,
          -1.2248873
        ]
      },
      "id": "node/5098143623"
    },
    {
      "type": "Feature",
      "properties": {
        "@id": "node/5340624321",
        "addr:city": "Kimende",
        "addr:street": "Nairobi-Nakuru Road",
        "amenity": "fuel",
        "brand": "Total",
        "brand:wikidata": "Q154037",
        "brand:wikipedia": "fr:Total (entreprise)",
        "name": "Total Kimende"
      },
      "geometry": {
        "type": "Point",
        "coordinates": [
          36.6304939,
          -0.9882766
        ]
      },
      "id": "node/5340624321"
    },
    {
      "type": "Feature",
      "properties": {
        "@id": "node/5479300924",
        "addr:city": "Madogo",
        "addr:street": "Garissa-Daadab Road",
        "amenity": "fuel",
        "brand": "Total",
        "brand:wikidata": "Q154037",
        "brand:wikipedia": "fr:TotalEnergies",
        "name": "Total"
      },
      "geometry": {
        "type": "Point",
        "coordinates": [
          39.6128021,
          -0.4686783
        ]
      },
      "id": "node/5479300924"
    },
    {
      "type": "Feature",
      "properties": {
        "@id": "node/5536013005",
        "addr:city": "Nairobi",
        "addr:street": "Koinage Street",
        "amenity": "fuel",
        "brand": "Total",
        "brand:wikidata": "Q154037",
        "name": "Total"
      },
      "geometry": {
        "type": "Point",
        "coordinates": [
          36.8186353,
          -1.284257
        ]
      },
      "id": "node/5536013005"
    },
    {
      "type": "Feature",
      "properties": {
        "@id": "node/5539579712",
        "addr:city": "Nairobi",
        "addr:street": "Likoni Road",
        "amenity": "fuel",
        "brand": "Total",
        "brand:wikidata": "Q154037",
        "brand:wikipedia": "fr:Total (entreprise)",
        "fuel:diesel": "yes",
        "fuel:gasoline": "yes",
        "name": "Total"
      },
      "geometry": {
        "type": "Point",
        "coordinates": [
          36.8555403,
          -1.3130168
        ]
      },
      "id": "node/5539579712"
    },
    {
      "type": "Feature",
      "properties": {
        "@id": "node/5540763538",
        "addr:city": "Wangige",
        "addr:street": "Gitaru Road",
        "amenity": "fuel",
        "brand": "Total",
        "brand:wikidata": "Q154037",
        "brand:wikipedia": "fr:Total (entreprise)",
        "name": "Total"
      },
      "geometry": {
        "type": "Point",
        "coordinates": [
          36.7125668,
          -1.2206232
        ]
      },
      "id": "node/5540763538"
    },
    {
      "type": "Feature",
      "properties": {
        "@id": "node/5552457016",
        "addr:city": "Nairobi",
        "addr:street": "Kimathi Street",
        "amenity": "fuel",
        "brand": "Total",
        "brand:wikidata": "Q154037",
        "brand:wikipedia": "fr:TotalEnergies",
        "name": "Total"
      },
      "geometry": {
        "type": "Point",
        "coordinates": [
          36.8211478,
          -1.2826306
        ]
      },
      "id": "node/5552457016"
    },
    {
      "type": "Feature",
      "properties": {
        "@id": "node/5801168319",
        "amenity": "fuel",
        "brand": "Total",
        "brand:wikidata": "Q154037",
        "name": "Total"
      },
      "geometry": {
        "type": "Point",
        "coordinates": [
          40.0131209,
          -3.3496223
        ]
      },
      "id": "node/5801168319"
    },
    {
      "type": "Feature",
      "properties": {
        "@id": "node/5886553686",
        "addr:city": "Nairobi",
        "addr:street": "Kangundo Road",
        "amenity": "fuel",
        "brand": "Total",
        "brand:wikidata": "Q154037",
        "brand:wikipedia": "fr:TotalEnergies",
        "name": "Total"
      },
      "geometry": {
        "type": "Point",
        "coordinates": [
          37.0377434,
          -1.2781797
        ]
      },
      "id": "node/5886553686"
    },
    {
      "type": "Feature",
      "properties": {
        "@id": "node/5993019652",
        "addr:city": "Mombasa",
        "addr:street": "Swalenguru road",
        "amenity": "fuel",
        "brand": "Total",
        "brand:wikidata": "Q154037",
        "brand:wikipedia": "fr:Total (entreprise)",
        "name": "Total"
      },
      "geometry": {
        "type": "Point",
        "coordinates": [
          39.6610068,
          -4.0430982
        ]
      },
      "id": "node/5993019652"
    },
    {
      "type": "Feature",
      "properties": {
        "@id": "node/6048586679",
        "addr:city": "Mombasa",
        "addr:street": "Sauti ya Kenya Road",
        "amenity": "fuel",
        "brand": "Total",
        "brand:wikidata": "Q154037",
        "brand:wikipedia": "fr:Total (entreprise)",
        "name": "Total"
      },
      "geometry": {
        "type": "Point",
        "coordinates": [
          39.6582916,
          -4.0619393
        ]
      },
      "id": "node/6048586679"
    },
    {
      "type": "Feature",
      "properties": {
        "@id": "node/6054877097",
        "addr:city": "Narok",
        "addr:street": "Kaplong-Narok-Maai Road",
        "amenity": "fuel",
        "brand": "Total",
        "brand:wikidata": "Q154037",
        "brand:wikipedia": "fr:Total (entreprise)",
        "name": "Total"
      },
      "geometry": {
        "type": "Point",
        "coordinates": [
          35.8821848,
          -1.0898329
        ]
      },
      "id": "node/6054877097"
    },
    {
      "type": "Feature",
      "properties": {
        "@id": "node/6072960952",
        "addr:city": "Likoni",
        "addr:street": "Likoni-Ukunda Road",
        "amenity": "fuel",
        "brand": "Total",
        "brand:wikidata": "Q154037",
        "brand:wikipedia": "fr:Total (entreprise)",
        "name": "Total Likoni Ferry Service Station"
      },
      "geometry": {
        "type": "Point",
        "coordinates": [
          39.6594283,
          -4.0846213
        ]
      },
      "id": "node/6072960952"
    },
    {
      "type": "Feature",
      "properties": {
        "@id": "node/6073490886",
        "addr:city": "Mariakani",
        "addr:street": "Mombasa Road",
        "amenity": "fuel",
        "brand": "Total",
        "brand:wikidata": "Q154037",
        "brand:wikipedia": "fr:Total (entreprise)",
        "name": "Total Front view"
      },
      "geometry": {
        "type": "Point",
        "coordinates": [
          39.4734574,
          -3.8637159
        ]
      },
      "id": "node/6073490886"
    },
    {
      "type": "Feature",
      "properties": {
        "@id": "node/6095562316",
        "addr:city": "Kisii",
        "addr:street": "Kisii-sotik Road",
        "amenity": "fuel",
        "brand": "Total",
        "brand:wikidata": "Q154037",
        "brand:wikipedia": "fr:Total (entreprise)",
        "name": "Total"
      },
      "geometry": {
        "type": "Point",
        "coordinates": [
          34.7763244,
          -0.6801632
        ]
      },
      "id": "node/6095562316"
    },
    {
      "type": "Feature",
      "properties": {
        "@id": "node/6106058058",
        "addr:city": "Kitale",
        "addr:street": "Mumia Highway",
        "amenity": "fuel",
        "brand": "Total",
        "brand:wikidata": "Q154037",
        "brand:wikipedia": "fr:Total (entreprise)",
        "name": "Total"
      },
      "geometry": {
        "type": "Point",
        "coordinates": [
          35.0017088,
          1.0201321
        ]
      },
      "id": "node/6106058058"
    },
    {
      "type": "Feature",
      "properties": {
        "@id": "node/6106202852",
        "addr:city": "Kitale",
        "addr:street": "Kakamega-Kitale Road",
        "amenity": "fuel",
        "brand": "Total",
        "brand:wikidata": "Q154037",
        "brand:wikipedia": "fr:Total (entreprise)",
        "name": "Total"
      },
      "geometry": {
        "type": "Point",
        "coordinates": [
          35.0083715,
          1.0014833
        ]
      },
      "id": "node/6106202852"
    },
    {
      "type": "Feature",
      "properties": {
        "@id": "node/6117710004",
        "addr:city": "KIAMBU",
        "addr:street": "Kiambu Road",
        "amenity": "fuel",
        "brand": "Total",
        "brand:wikidata": "Q154037",
        "brand:wikipedia": "fr:Total (entreprise)",
        "name": "Total"
      },
      "geometry": {
        "type": "Point",
        "coordinates": [
          36.8398301,
          -1.1893155
        ]
      },
      "id": "node/6117710004"
    },
    {
      "type": "Feature",
      "properties": {
        "@id": "node/6130562041",
        "addr:city": "Kisumu",
        "addr:street": "Makasembo Road",
        "amenity": "fuel",
        "brand": "Total",
        "brand:wikidata": "Q154037",
        "brand:wikipedia": "fr:Total (entreprise)",
        "name": "Total"
      },
      "geometry": {
        "type": "Point",
        "coordinates": [
          34.7531853,
          -0.0958907
        ]
      },
      "id": "node/6130562041"
    },
    {
      "type": "Feature",
      "properties": {
        "@id": "node/6130562042",
        "addr:city": "Kisumu",
        "addr:street": "Otieno Oyoo Street",
        "amenity": "fuel",
        "brand": "Total",
        "brand:wikidata": "Q154037",
        "brand:wikipedia": "fr:Total (entreprise)",
        "name": "Total"
      },
      "geometry": {
        "type": "Point",
        "coordinates": [
          34.7536752,
          -0.0964112
        ]
      },
      "id": "node/6130562042"
    },
    {
      "type": "Feature",
      "properties": {
        "@id": "node/6130562043",
        "addr:city": "Kisumu",
        "addr:street": "Otieno Oyoo Street",
        "amenity": "fuel",
        "brand": "Total",
        "brand:wikidata": "Q154037",
        "brand:wikipedia": "fr:Total (entreprise)",
        "name": "Total"
      },
      "geometry": {
        "type": "Point",
        "coordinates": [
          34.7543429,
          -0.0970281
        ]
      },
      "id": "node/6130562043"
    },
    {
      "type": "Feature",
      "properties": {
        "@id": "node/6130562045",
        "addr:city": "Kisumu",
        "addr:street": "Otieno Oyoo Street",
        "amenity": "fuel",
        "brand": "Total",
        "brand:wikidata": "Q154037",
        "brand:wikipedia": "fr:Total (entreprise)",
        "name": "Total Petrol Station - Kamas"
      },
      "geometry": {
        "type": "Point",
        "coordinates": [
          34.7544254,
          -0.0974089
        ]
      },
      "id": "node/6130562045"
    },
    {
      "type": "Feature",
      "properties": {
        "@id": "node/6142124435",
        "addr:city": "Meru",
        "addr:street": "Embu-Meru Highway",
        "amenity": "fuel",
        "brand": "Total",
        "brand:wikidata": "Q154037",
        "brand:wikipedia": "fr:Total (entreprise)",
        "name": "Total"
      },
      "geometry": {
        "type": "Point",
        "coordinates": [
          37.645618,
          0.0508699
        ]
      },
      "id": "node/6142124435"
    },
    {
      "type": "Feature",
      "properties": {
        "@id": "node/6142165380",
        "addr:city": "Meru",
        "addr:street": "Meru-Maua Road",
        "amenity": "fuel",
        "brand": "Total",
        "brand:wikidata": "Q154037",
        "brand:wikipedia": "fr:Total (entreprise)",
        "name": "Total"
      },
      "geometry": {
        "type": "Point",
        "coordinates": [
          37.6471789,
          0.0644025
        ]
      },
      "id": "node/6142165380"
    },
    {
      "type": "Feature",
      "properties": {
        "@id": "node/6149443765",
        "addr:city": "Eldoret",
        "addr:street": "Stendi Kisa - Yala Road",
        "amenity": "fuel",
        "brand": "Total",
        "brand:wikidata": "Q154037",
        "brand:wikipedia": "fr:TotalEnergies",
        "name": "Total Sosiani River Service Station"
      },
      "geometry": {
        "type": "Point",
        "coordinates": [
          35.2759271,
          0.5124786
        ]
      },
      "id": "node/6149443765"
    },
    {
      "type": "Feature",
      "properties": {
        "@id": "node/6151466843",
        "addr:city": "Nakuru",
        "addr:street": "George Morara Road",
        "amenity": "fuel",
        "brand": "Total",
        "brand:wikidata": "Q154037",
        "brand:wikipedia": "fr:TotalEnergies",
        "name": "Total Westend Service Station"
      },
      "geometry": {
        "type": "Point",
        "coordinates": [
          36.0565136,
          -0.2894578
        ]
      },
      "id": "node/6151466843"
    },
    {
      "type": "Feature",
      "properties": {
        "@id": "node/6197926465",
        "addr:city": "Nairobi",
        "addr:street": "Enterprise Road",
        "amenity": "fuel",
        "brand": "Total",
        "brand:wikidata": "Q154037",
        "name": "Total"
      },
      "geometry": {
        "type": "Point",
        "coordinates": [
          36.8412852,
          -1.3058329
        ]
      },
      "id": "node/6197926465"
    },
    {
      "type": "Feature",
      "properties": {
        "@id": "node/6199038670",
        "addr:city": "Juja",
        "addr:street": "Thika Road",
        "amenity": "fuel",
        "brand": "Total",
        "brand:wikidata": "Q154037",
        "brand:wikipedia": "fr:Total (entreprise)",
        "name": "Total"
      },
      "geometry": {
        "type": "Point",
        "coordinates": [
          37.0088748,
          -1.119084
        ]
      },
      "id": "node/6199038670"
    },
    {
      "type": "Feature",
      "properties": {
        "@id": "node/6210243609",
        "addr:city": "Athi River",
        "addr:street": "Mombasa Road",
        "amenity": "fuel",
        "brand": "Total",
        "brand:wikidata": "Q154037",
        "brand:wikipedia": "fr:Total (entreprise)",
        "name": "Total"
      },
      "geometry": {
        "type": "Point",
        "coordinates": [
          36.9540436,
          -1.4196563
        ]
      },
      "id": "node/6210243609"
    },
    {
      "type": "Feature",
      "properties": {
        "@id": "node/6210275893",
        "addr:city": "Athi River",
        "addr:street": "Mombasa Road",
        "amenity": "fuel",
        "brand": "Total",
        "brand:wikidata": "Q154037",
        "name": "Total Athi River"
      },
      "geometry": {
        "type": "Point",
        "coordinates": [
          36.9792502,
          -1.439364
        ]
      },
      "id": "node/6210275893"
    },
    {
      "type": "Feature",
      "properties": {
        "@id": "node/6213275412",
        "addr:city": "Sagana",
        "addr:street": "A2",
        "amenity": "fuel",
        "brand": "Total",
        "brand:wikidata": "Q154037",
        "brand:wikipedia": "fr:Total (entreprise)",
        "name": "Total"
      },
      "geometry": {
        "type": "Point",
        "coordinates": [
          37.2091393,
          -0.664551
        ]
      },
      "id": "node/6213275412"
    },
    {
      "type": "Feature",
      "properties": {
        "@id": "node/6215841017",
        "addr:city": "Gatitu",
        "addr:street": "Nyeri Karatina Road",
        "amenity": "fuel",
        "brand": "Total",
        "brand:wikidata": "Q154037",
        "brand:wikipedia": "fr:Total (entreprise)",
        "name": "Total"
      },
      "geometry": {
        "type": "Point",
        "coordinates": [
          36.9998861,
          -0.4579743
        ]
      },
      "id": "node/6215841017"
    },
    {
      "type": "Feature",
      "properties": {
        "@id": "node/6216376860",
        "addr:city": "Ngong",
        "addr:street": "Ngong Road",
        "amenity": "fuel",
        "brand": "Total",
        "brand:wikidata": "Q154037",
        "brand:wikipedia": "fr:Total (entreprise)",
        "name": "Total shaz Energy"
      },
      "geometry": {
        "type": "Point",
        "coordinates": [
          36.6561747,
          -1.3587986
        ]
      },
      "id": "node/6216376860"
    },
    {
      "type": "Feature",
      "properties": {
        "@id": "node/6218304918",
        "addr:city": "Matasia",
        "addr:street": "Forest Line Road",
        "amenity": "fuel",
        "brand": "Total",
        "brand:wikidata": "Q154037",
        "brand:wikipedia": "fr:Total (entreprise)",
        "name": "Total Matasia"
      },
      "geometry": {
        "type": "Point",
        "coordinates": [
          36.6824601,
          -1.3918312
        ]
      },
      "id": "node/6218304918"
    },
    {
      "type": "Feature",
      "properties": {
        "@id": "node/6218599562",
        "addr:city": "Rongai",
        "addr:street": "Magadi Road",
        "amenity": "fuel",
        "brand": "Total",
        "brand:wikidata": "Q154037",
        "name": "Total Ongata Rongai Service Station"
      },
      "geometry": {
        "type": "Point",
        "coordinates": [
          36.7377679,
          -1.3961669
        ]
      },
      "id": "node/6218599562"
    },
    {
      "type": "Feature",
      "properties": {
        "@id": "node/6235677116",
        "addr:city": "Gapco Kokotoni",
        "addr:street": "Mombasa Road",
        "amenity": "fuel",
        "brand": "Total",
        "brand:wikidata": "Q154037",
        "brand:wikipedia": "fr:Total (entreprise)",
        "name": "Total GOLDNEST TRADING"
      },
      "geometry": {
        "type": "Point",
        "coordinates": [
          39.5261752,
          -3.9224215
        ]
      },
      "id": "node/6235677116"
    },
    {
      "type": "Feature",
      "properties": {
        "@id": "node/6235829877",
        "addr:city": "Jomvu",
        "addr:street": "Mombasa Road",
        "amenity": "fuel",
        "brand": "Total",
        "brand:wikidata": "Q154037",
        "brand:wikipedia": "fr:Total (entreprise)",
        "name": "Total Kwa Jomvu Service"
      },
      "geometry": {
        "type": "Point",
        "coordinates": [
          39.5903254,
          -4.0094019
        ]
      },
      "id": "node/6235829877"
    },
    {
      "type": "Feature",
      "properties": {
        "@id": "node/6236068223",
        "addr:city": "Kitui",
        "addr:street": "Kibwezi - Kitui Road",
        "amenity": "fuel",
        "brand": "Total",
        "brand:wikidata": "Q154037",
        "brand:wikipedia": "fr:Total (entreprise)",
        "name": "Total"
      },
      "geometry": {
        "type": "Point",
        "coordinates": [
          38.0110834,
          -1.3642114
        ]
      },
      "id": "node/6236068223"
    },
    {
      "type": "Feature",
      "properties": {
        "@id": "node/6241302182",
        "addr:city": "Machakos",
        "addr:street": "Machakos-Kagundo Road",
        "amenity": "fuel",
        "brand": "Total",
        "brand:wikidata": "Q154037",
        "brand:wikipedia": "fr:TotalEnergies",
        "name": "Total Mutituni"
      },
      "geometry": {
        "type": "Point",
        "coordinates": [
          37.2502719,
          -1.4589988
        ]
      },
      "id": "node/6241302182"
    },
    {
      "type": "Feature",
      "properties": {
        "@id": "node/6241342240",
        "addr:city": "Gilgil",
        "addr:street": "Gilgil Town Road",
        "amenity": "fuel",
        "brand": "Total",
        "brand:wikidata": "Q154037",
        "brand:wikipedia": "fr:Total (entreprise)",
        "name": "Total New Gilgil Service Station"
      },
      "geometry": {
        "type": "Point",
        "coordinates": [
          36.3272336,
          -0.502181
        ]
      },
      "id": "node/6241342240"
    },
    {
      "type": "Feature",
      "properties": {
        "@id": "node/6244342643",
        "addr:city": "Webuye",
        "addr:street": "Eldoret-Malaba Road",
        "amenity": "fuel",
        "brand": "Total",
        "brand:wikidata": "Q154037",
        "brand:wikipedia": "fr:TotalEnergies",
        "name": "Total Webuye"
      },
      "geometry": {
        "type": "Point",
        "coordinates": [
          34.750549,
          0.6063461
        ]
      },
      "id": "node/6244342643"
    },
    {
      "type": "Feature",
      "properties": {
        "@id": "node/6247234506",
        "addr:city": "Nanyuki",
        "addr:street": "Nyeri-Nanyuki Road",
        "amenity": "fuel",
        "brand": "Total",
        "brand:wikidata": "Q154037",
        "brand:wikipedia": "fr:TotalEnergies",
        "name": "Total"
      },
      "geometry": {
        "type": "Point",
        "coordinates": [
          37.0789664,
          0.0148344
        ]
      },
      "id": "node/6247234506"
    },
    {
      "type": "Feature",
      "properties": {
        "@id": "node/6251534785",
        "addr:city": "Ruiru",
        "addr:street": "Thika Road",
        "amenity": "fuel",
        "brand": "Total",
        "brand:wikidata": "Q154037",
        "brand:wikipedia": "fr:Total (entreprise)",
        "name": "Total"
      },
      "geometry": {
        "type": "Point",
        "coordinates": [
          36.9588981,
          -1.1578734
        ]
      },
      "id": "node/6251534785"
    },
    {
      "type": "Feature",
      "properties": {
        "@id": "node/6257859221",
        "addr:city": "Ruaka",
        "addr:street": "Limuru Road",
        "amenity": "fuel",
        "brand": "Total",
        "brand:wikidata": "Q154037",
        "brand:wikipedia": "fr:Total (entreprise)",
        "name": "Total"
      },
      "geometry": {
        "type": "Point",
        "coordinates": [
          36.7895376,
          -1.2106522
        ]
      },
      "id": "node/6257859221"
    },
    {
      "type": "Feature",
      "properties": {
        "@id": "node/6259798892",
        "addr:city": "Nairobi",
        "addr:street": "Rd to Utawala Academy",
        "amenity": "fuel",
        "brand": "Total",
        "brand:wikidata": "Q154037",
        "brand:wikipedia": "fr:TotalEnergies",
        "name": "Total Embakasi Service Station"
      },
      "geometry": {
        "type": "Point",
        "coordinates": [
          36.9136626,
          -1.3113219
        ]
      },
      "id": "node/6259798892"
    },
    {
      "type": "Feature",
      "properties": {
        "@id": "node/6593042948",
        "addr:city": "Nairobi",
        "addr:street": "Limuru Road",
        "amenity": "fuel",
        "brand": "Total",
        "brand:wikidata": "Q154037",
        "brand:wikipedia": "fr:Total (entreprise)",
        "name": "Total"
      },
      "geometry": {
        "type": "Point",
        "coordinates": [
          36.8035601,
          -1.2319582
        ]
      },
      "id": "node/6593042948"
    },
    {
      "type": "Feature",
      "properties": {
        "@id": "node/6610560423",
        "addr:city": "Marsabit",
        "addr:street": "Marsabit-Moyale Road",
        "amenity": "fuel",
        "brand": "Total",
        "brand:wikidata": "Q154037",
        "brand:wikipedia": "fr:Total (entreprise)",
        "name": "Total"
      },
      "geometry": {
        "type": "Point",
        "coordinates": [
          37.985717,
          2.3309163
        ]
      },
      "id": "node/6610560423"
    },
    {
      "type": "Feature",
      "properties": {
        "@id": "node/6804597269",
        "addr:city": "Kiambu",
        "addr:street": "Kiambu Road",
        "amenity": "fuel",
        "brand": "Total",
        "brand:wikidata": "Q154037",
        "brand:wikipedia": "fr:Total (entreprise)",
        "name": "Total Fourways"
      },
      "geometry": {
        "type": "Point",
        "coordinates": [
          36.8343887,
          -1.2126466
        ]
      },
      "id": "node/6804597269"
    },
    {
      "type": "Feature",
      "properties": {
        "@id": "node/6870975329",
        "addr:city": "Runyenje's",
        "addr:street": "Runyenje's - Siakago Road",
        "amenity": "fuel",
        "brand": "Total",
        "brand:wikidata": "Q154037",
        "brand:wikipedia": "fr:Total (entreprise)",
        "name": "Total"
      },
      "geometry": {
        "type": "Point",
        "coordinates": [
          37.5702809,
          -0.4252741
        ]
      },
      "id": "node/6870975329"
    },
    {
      "type": "Feature",
      "properties": {
        "@id": "node/6905898168",
        "addr:city": "Mai Mahiu",
        "addr:street": "Kamandura-Maai Mahiu-Narok Road",
        "amenity": "fuel",
        "brand": "Total",
        "brand:wikidata": "Q154037",
        "brand:wikipedia": "fr:Total (entreprise)",
        "name": "Total",
        "opening_hours:signed": "no"
      },
      "geometry": {
        "type": "Point",
        "coordinates": [
          36.5857902,
          -0.9828562
        ]
      },
      "id": "node/6905898168"
    },
    {
      "type": "Feature",
      "properties": {
        "@id": "node/6916068202",
        "addr:city": "Mau Summit",
        "addr:street": "Nairobi Road",
        "amenity": "fuel",
        "brand": "Total",
        "brand:wikidata": "Q154037",
        "brand:wikipedia": "fr:TotalEnergies",
        "name": "Total"
      },
      "geometry": {
        "type": "Point",
        "coordinates": [
          35.6939918,
          -0.1587195
        ]
      },
      "id": "node/6916068202"
    },
    {
      "type": "Feature",
      "properties": {
        "@id": "node/6934156166",
        "addr:city": "Kapenguria",
        "addr:street": "Kapenguria-Lodwar Road",
        "amenity": "fuel",
        "brand": "Total",
        "brand:wikidata": "Q154037",
        "brand:wikipedia": "fr:Total (entreprise)",
        "is_in:village": "Makutano",
        "name": "Total"
      },
      "geometry": {
        "type": "Point",
        "coordinates": [
          35.0956174,
          1.2577674
        ]
      },
      "id": "node/6934156166"
    },
    {
      "type": "Feature",
      "properties": {
        "@id": "node/6969176800",
        "addr:city": "Kisumu",
        "addr:street": "A1",
        "amenity": "fuel",
        "brand": "Total",
        "brand:wikidata": "Q154037",
        "brand:wikipedia": "fr:Total (entreprise)",
        "name": "Total Nairobi Road"
      },
      "geometry": {
        "type": "Point",
        "coordinates": [
          34.7973254,
          -0.1379482
        ]
      },
      "id": "node/6969176800"
    },
    {
      "type": "Feature",
      "properties": {
        "@id": "node/7023166217",
        "amenity": "fuel",
        "brand": "Total",
        "brand:wikidata": "Q154037",
        "brand:wikipedia": "fr:Total (entreprise)",
        "name": "Total"
      },
      "geometry": {
        "type": "Point",
        "coordinates": [
          34.1381934,
          0.4490079
        ]
      },
      "id": "node/7023166217"
    },
    {
      "type": "Feature",
      "properties": {
        "@id": "node/7222729627",
        "addr:city": "Yala",
        "addr:street": "Kisumu-Busia Highway",
        "amenity": "fuel",
        "brand": "Total",
        "brand:wikidata": "Q154037",
        "brand:wikipedia": "fr:Total (entreprise)",
        "name": "Total"
      },
      "geometry": {
        "type": "Point",
        "coordinates": [
          34.5321424,
          0.0924306
        ]
      },
      "id": "node/7222729627"
    },
    {
      "type": "Feature",
      "properties": {
        "@id": "node/7229869124",
        "addr:city": "Kisumu",
        "addr:street": "Jomo Kenyatta Highway",
        "amenity": "fuel",
        "brand": "Total",
        "brand:wikidata": "Q154037",
        "brand:wikipedia": "fr:Total (entreprise)",
        "name": "Total"
      },
      "geometry": {
        "type": "Point",
        "coordinates": [
          34.7688165,
          -0.0901036
        ]
      },
      "id": "node/7229869124"
    },
    {
      "type": "Feature",
      "properties": {
        "@id": "node/7232815588",
        "addr:street": "Vihiga-Maragoli Road",
        "amenity": "fuel",
        "brand": "Total",
        "brand:wikidata": "Q154037",
        "brand:wikipedia": "fr:Total (entreprise)",
        "name": "Total"
      },
      "geometry": {
        "type": "Point",
        "coordinates": [
          34.7208297,
          0.0664238
        ]
      },
      "id": "node/7232815588"
    },
    {
      "type": "Feature",
      "properties": {
        "@id": "node/7239126633",
        "addr:city": "Kakamega",
        "addr:street": "Kisumu-Kakamega Road",
        "amenity": "fuel",
        "brand": "Total",
        "brand:wikidata": "Q154037",
        "brand:wikipedia": "fr:Total (entreprise)",
        "name": "Total"
      },
      "geometry": {
        "type": "Point",
        "coordinates": [
          34.7563803,
          0.2875324
        ]
      },
      "id": "node/7239126633"
    },
    {
      "type": "Feature",
      "properties": {
        "@id": "node/7279812774",
        "addr:city": "Kagumo",
        "addr:street": "C74",
        "amenity": "fuel",
        "brand": "Total",
        "brand:wikidata": "Q154037",
        "brand:wikipedia": "fr:Total (entreprise)",
        "name": "Total"
      },
      "geometry": {
        "type": "Point",
        "coordinates": [
          37.2367589,
          -0.4755861
        ]
      },
      "id": "node/7279812774"
    },
    {
      "type": "Feature",
      "properties": {
        "@id": "node/7279812782",
        "addr:city": "Kerugoya",
        "addr:street": "C74",
        "amenity": "fuel",
        "brand": "Total",
        "brand:wikidata": "Q154037",
        "brand:wikipedia": "fr:Total (entreprise)",
        "name": "Total"
      },
      "geometry": {
        "type": "Point",
        "coordinates": [
          37.2793885,
          -0.5021753
        ]
      },
      "id": "node/7279812782"
    },
    {
      "type": "Feature",
      "properties": {
        "@id": "node/7282595076",
        "addr:street": "Embu-Nairobi Highway",
        "amenity": "fuel",
        "brand": "Total",
        "brand:wikidata": "Q154037",
        "brand:wikipedia": "fr:Total (entreprise)",
        "name": "Total"
      },
      "geometry": {
        "type": "Point",
        "coordinates": [
          37.1396665,
          -0.9348011
        ]
      },
      "id": "node/7282595076"
    },
    {
      "type": "Feature",
      "properties": {
        "@id": "node/7282595077",
        "addr:street": "Embu-Nairobi Highway",
        "amenity": "fuel",
        "brand": "Total",
        "brand:wikidata": "Q154037",
        "brand:wikipedia": "fr:Total (entreprise)",
        "name": "Total"
      },
      "geometry": {
        "type": "Point",
        "coordinates": [
          37.1390014,
          -0.9349754
        ]
      },
      "id": "node/7282595077"
    },
    {
      "type": "Feature",
      "properties": {
        "@id": "node/7893551874",
        "addr:city": "Kericho",
        "addr:street": "John Kerich Road",
        "amenity": "fuel",
        "brand": "Total",
        "brand:wikidata": "Q154037",
        "brand:wikipedia": "fr:Total (entreprise)",
        "name": "Total"
      },
      "geometry": {
        "type": "Point",
        "coordinates": [
          35.2850887,
          -0.3680032
        ]
      },
      "id": "node/7893551874"
    },
    {
      "type": "Feature",
      "properties": {
        "@id": "node/7928183169",
        "addr:city": "Kakamega",
        "addr:street": "Kakamega-Webuye Highway",
        "amenity": "fuel",
        "brand": "Total",
        "brand:wikidata": "Q154037",
        "brand:wikipedia": "fr:Total (entreprise)",
        "name": "Total"
      },
      "geometry": {
        "type": "Point",
        "coordinates": [
          34.7853166,
          0.3198836
        ]
      },
      "id": "node/7928183169"
    },
    {
      "type": "Feature",
      "properties": {
        "@id": "node/7959642969",
        "addr:city": "Kiminini",
        "addr:street": "Kakamega-Kitale Road",
        "amenity": "fuel",
        "brand": "Total",
        "brand:wikidata": "Q154037",
        "brand:wikipedia": "fr:Total (entreprise)",
        "name": "Total"
      },
      "geometry": {
        "type": "Point",
        "coordinates": [
          34.9245679,
          0.8939788
        ]
      },
      "id": "node/7959642969"
    },
    {
      "type": "Feature",
      "properties": {
        "@id": "node/7976569604",
        "addr:city": "Burnt Forest",
        "addr:street": "Eldoret-Nakuru Road",
        "amenity": "fuel",
        "brand": "Total",
        "brand:wikidata": "Q154037",
        "brand:wikipedia": "fr:TotalEnergies",
        "name": "Total"
      },
      "geometry": {
        "type": "Point",
        "coordinates": [
          35.4335563,
          0.2153151
        ]
      },
      "id": "node/7976569604"
    },
    {
      "type": "Feature",
      "properties": {
        "@id": "node/8062738430",
        "addr:city": "Mombasa",
        "addr:street": "Nyali Road",
        "amenity": "fuel",
        "brand": "Total",
        "brand:wikidata": "Q154037",
        "brand:wikipedia": "fr:Total (entreprise)",
        "name": "Total"
      },
      "geometry": {
        "type": "Point",
        "coordinates": [
          39.7056215,
          -4.0237585
        ]
      },
      "id": "node/8062738430"
    },
    {
      "type": "Feature",
      "properties": {
        "@id": "node/8081451947",
        "addr:street": "Malindi Road",
        "amenity": "fuel",
        "brand": "Total",
        "brand:wikidata": "Q154037",
        "brand:wikipedia": "fr:Total (entreprise)",
        "name": "Total"
      },
      "geometry": {
        "type": "Point",
        "coordinates": [
          39.7932168,
          -3.8566692
        ]
      },
      "id": "node/8081451947"
    },
    {
      "type": "Feature",
      "properties": {
        "@id": "node/8168743975",
        "amenity": "fuel",
        "brand": "Total",
        "brand:wikidata": "Q154037",
        "brand:wikipedia": "fr:TotalEnergies",
        "name": "Total Fedha"
      },
      "geometry": {
        "type": "Point",
        "coordinates": [
          36.8968102,
          -1.3182389
        ]
      },
      "id": "node/8168743975"
    },
    {
      "type": "Feature",
      "properties": {
        "@id": "node/8230475519",
        "addr:street": "Northern Bypass",
        "amenity": "fuel",
        "brand": "Total",
        "brand:wikidata": "Q154037",
        "brand:wikipedia": "fr:Total (entreprise)",
        "name": "Total"
      },
      "geometry": {
        "type": "Point",
        "coordinates": [
          36.9168317,
          -1.1709046
        ]
      },
      "id": "node/8230475519"
    },
    {
      "type": "Feature",
      "properties": {
        "@id": "node/8247882589",
        "addr:city": "Nairobi",
        "addr:street": "Eastern Bypass",
        "amenity": "fuel",
        "brand": "Total",
        "brand:wikidata": "Q154037",
        "brand:wikipedia": "fr:TotalEnergies",
        "name": "Total"
      },
      "geometry": {
        "type": "Point",
        "coordinates": [
          36.9923986,
          -1.1832122
        ]
      },
      "id": "node/8247882589"
    },
    {
      "type": "Feature",
      "properties": {
        "@id": "node/8293614669",
        "addr:city": "Nairobi",
        "addr:street": "Eastern Bypass",
        "amenity": "fuel",
        "brand": "Total",
        "brand:wikidata": "Q154037",
        "brand:wikipedia": "fr:TotalEnergies",
        "name": "Total"
      },
      "geometry": {
        "type": "Point",
        "coordinates": [
          36.9731885,
          -1.2733248
        ]
      },
      "id": "node/8293614669"
    },
    {
      "type": "Feature",
      "properties": {
        "@id": "node/8324606220",
        "addr:city": "Limuru",
        "addr:street": "Manguo Road",
        "amenity": "fuel",
        "brand": "Total",
        "brand:wikidata": "Q154037",
        "brand:wikipedia": "fr:Total (entreprise)",
        "name": "Total"
      },
      "geometry": {
        "type": "Point",
        "coordinates": [
          36.6421983,
          -1.1074991
        ]
      },
      "id": "node/8324606220"
    },
    {
      "type": "Feature",
      "properties": {
        "@id": "node/8334310086",
        "addr:city": "Ruaka",
        "addr:street": "Limuru Road",
        "amenity": "fuel",
        "brand": "Total",
        "brand:wikidata": "Q154037",
        "brand:wikipedia": "fr:Total (entreprise)",
        "name": "Total"
      },
      "geometry": {
        "type": "Point",
        "coordinates": [
          36.7610795,
          -1.2009814
        ]
      },
      "id": "node/8334310086"
    },
    {
      "type": "Feature",
      "properties": {
        "@id": "node/8338714156",
        "addr:city": "Nairobi",
        "addr:street": "Kangundo Road",
        "amenity": "fuel",
        "brand": "Total",
        "brand:wikidata": "Q154037",
        "brand:wikipedia": "fr:TotalEnergies",
        "name": "Total"
      },
      "geometry": {
        "type": "Point",
        "coordinates": [
          36.9606127,
          -1.2526761
        ]
      },
      "id": "node/8338714156"
    },
    {
      "type": "Feature",
      "properties": {
        "@id": "node/8954255070",
        "addr:city": "Barnabas",
        "addr:street": "Nairobi-Nakuru Road",
        "amenity": "fuel",
        "brand": "Total",
        "brand:wikidata": "Q154037",
        "brand:wikipedia": "fr:Total (entreprise)",
        "name": "Total"
      },
      "geometry": {
        "type": "Point",
        "coordinates": [
          36.1580526,
          -0.3293409
        ]
      },
      "id": "node/8954255070"
    },
    {
      "type": "Feature",
      "properties": {
        "@id": "node/8992972051",
        "addr:city": "Nairobi",
        "addr:street": "Kasarani Mwiki Road",
        "amenity": "fuel",
        "brand": "Total",
        "brand:wikidata": "Q154037",
        "brand:wikipedia": "fr:Total nergies",
        "name": "Total"
      },
      "geometry": {
        "type": "Point",
        "coordinates": [
          36.8988169,
          -1.2173593
        ]
      },
      "id": "node/8992972051"
    },
    {
      "type": "Feature",
      "properties": {
        "@id": "node/9004506165",
        "addr:city": "Nairobi",
        "addr:street": "Kasarani Mwiki Road",
        "amenity": "fuel",
        "brand": "Total",
        "brand:wikidata": "Q154037",
        "brand:wikipedia": "fr:Total nergies",
        "name": "Total"
      },
      "geometry": {
        "type": "Point",
        "coordinates": [
          36.912655,
          -1.2229636
        ]
      },
      "id": "node/9004506165"
    },
    {
      "type": "Feature",
      "properties": {
        "@id": "node/9004506166",
        "addr:city": "Nairobi",
        "addr:street": "Kasarani Mwiki Road",
        "amenity": "fuel",
        "brand": "Total",
        "brand:wikidata": "Q154037",
        "brand:wikipedia": "fr:TotalEnergies",
        "name": "Total"
      },
      "geometry": {
        "type": "Point",
        "coordinates": [
          36.9212589,
          -1.2294724
        ]
      },
      "id": "node/9004506166"
    },
    {
      "type": "Feature",
      "properties": {
        "@id": "node/9028867152",
        "addr:city": "Nairobi",
        "addr:street": "Kangundo Road",
        "amenity": "fuel",
        "brand": "Total",
        "brand:wikidata": "Q154037",
        "brand:wikipedia": "fr:TotalEnergies",
        "name": "Total"
      },
      "geometry": {
        "type": "Point",
        "coordinates": [
          37.1096491,
          -1.2808316
        ]
      },
      "id": "node/9028867152"
    },
    {
      "type": "Feature",
      "properties": {
        "@id": "node/9032309251",
        "addr:city": "Madogo",
        "addr:street": "Garissa-Daadab Road",
        "amenity": "fuel",
        "brand": "Total",
        "brand:wikidata": "Q154037",
        "brand:wikipedia": "fr:TotalEnergies",
        "name": "Total"
      },
      "geometry": {
        "type": "Point",
        "coordinates": [
          39.6047606,
          -0.4718545
        ]
      },
      "id": "node/9032309251"
    },
    {
      "type": "Feature",
      "properties": {
        "@id": "node/9658292776",
        "amenity": "fuel",
        "brand": "Total",
        "brand:wikidata": "Q154037",
        "brand:wikipedia": "fr:TotalEnergies",
        "name": "TOTAL Hurlingam"
      },
      "geometry": {
        "type": "Point",
        "coordinates": [
          36.8022994,
          -1.2957834
        ]
      },
      "id": "node/9658292776"
    },
    {
      "type": "Feature",
      "properties": {
        "@id": "node/9800859028",
        "amenity": "fuel",
        "brand": "Total",
        "brand:wikidata": "Q154037",
        "name": "Total Mihang'o"
      },
      "geometry": {
        "type": "Point",
        "coordinates": [
          36.9545277,
          -1.2859029
        ]
      },
      "id": "node/9800859028"
    }
  ]
}