{
  "type": "FeatureCollection",
  "generator": "overpass-ide",
  "copyright": "The data included in this document is from www.openstreetmap.org. The data is made available under ODbL.",
  "timestamp": "2022-08-15T14:07:23Z",
  "features": [
    {
      "type": "Feature",
      "properties": {
        "@id": "way/123458414",
        "addr:city": "Nairobi",
        "addr:street": "Harambee Avenue",
        "amenity": "townhall",
        "building": "yes",
        "name": "County Hall Building"
      },
      "geometry": {
        "type": "Point",
        "coordinates": [
          36.82100, -1.29095
        ]
      },
      "id": "way/123458414"
    },
    {
      "type": "Feature",
      "properties": {
        "@id": "way/184167243",
        "amenity": "townhall",
        "name": "nakuru town hall"
      },
      "geometry": {
        "type": "Point",
        "coordinates": [
          36.06388, -0.30605
        ]
      },
      "id": "way/184167243"
    },
    {
      "type": "Feature",
      "properties": {
        "@id": "way/241193505",
        "addr:city": "Nairobi",
        "addr:housename": "City Hall",
        "addr:street": "City Hall Way",
        "amenity": "townhall",
        "building": "yes",
        "name": "Nairobi City Hall"
      },
      "geometry": {
        "type": "Point",
        "coordinates": [
          36.82174, -1.28689
        ]
      },
      "id": "way/241193505"
    },
    {
      "type": "Feature",
      "properties": {
        "@id": "way/241193506",
        "addr:city": "Nairobi",
        "addr:street": "Wabera Street",
        "amenity": "townhall",
        "building": "yes",
        "name": "Nairobi City Hall"
      },
      "geometry": {
        "type": "Point",
        "coordinates": [
          36.82237, -1.28647
        ]
      },
      "id": "way/241193506"
    },
    {
      "type": "Feature",
      "properties": {
        "@id": "way/241193507",
        "addr:city": "Nairobi",
        "addr:street": "City Hall Way",
        "amenity": "townhall",
        "building": "yes",
        "name": "Nairobi City Hall"
      },
      "geometry": {
        "type": "Point",
        "coordinates": [
          36.82201, -1.28663
        ]
      },
      "id": "way/241193507"
    },
    {
      "type": "Feature",
      "properties": {
        "@id": "way/241193508",
        "addr:city": "Nairobi",
        "addr:street": "Mama Ngina Street",
        "amenity": "townhall",
        "building": "yes",
        "name": "Nairobi City Hall"
      },
      "geometry": {
        "type": "Point",
        "coordinates": [
          36.82173, -1.28686
        ]
      },
      "id": "way/241193508"
    },
    {
      "type": "Feature",
      "properties": {
        "@id": "way/241193514",
        "addr:city": "Nairobi",
        "addr:street": "Cardinal Otunga Street",
        "amenity": "townhall",
        "building": "yes",
        "building:levels": "15",
        "name": "City Hall Annexe"
      },
      "geometry": {
        "type": "Point",
        "coordinates": [
          36.82111, -1.28653
        ]
      },
      "id": "way/241193514"
    },
    {
      "type": "Feature",
      "properties": {
        "@id": "way/247573734",
        "amenity": "townhall",
        "building": "yes",
        "name": "Kendu Bay Town Hall"
      },
      "geometry": {
        "type": "Point",
        "coordinates": [
          34.65706, -0.38005
        ]
      },
      "id": "way/247573734"
    },
    {
      "type": "Feature",
      "properties": {
        "@id": "way/330899949",
        "amenity": "townhall",
        "building": "yes",
        "name": "JKUAT assembly hall",
        "operator": "JKUAT"
      },
      "geometry": {
        "type": "Point",
        "coordinates": [
          37.01504, -1.09529
        ]
      },
      "id": "way/330899949"
    },
    {
      "type": "Feature",
      "properties": {
        "@id": "way/343542212",
        "addr:street": "Chumvi-Machakos-Kitui Road",
        "amenity": "townhall",
        "building": "yes",
        "name": "Machakos Town Hall"
      },
      "geometry": {
        "type": "Point",
        "coordinates": [
          37.26639, -1.52034
        ]
      },
      "id": "way/343542212"
    },
    {
      "type": "Feature",
      "properties": {
        "@id": "way/368900687",
        "addr:city": "Mumias",
        "addr:street": "Mumias-Bungoma Road",
        "amenity": "townhall",
        "building": "yes",
        "name": "Mumias Town Hall"
      },
      "geometry": {
        "type": "Point",
        "coordinates": [
          34.48940, 0.33655
        ]
      },
      "id": "way/368900687"
    },
    
    {
      "type": "Feature",
      "properties": {
        "@id": "way/407532884",
        "addr:city": "Mandera",
        "amenity": "townhall",
        "building": "yes",
        "name": "Mandera Town Hall"
      },
      "geometry": {
        "type": "Point",
        "coordinates": [
          41.86375, 3.94027
        ]
      },
      "id": "way/407532884"
    },
    {
      "type": "Feature",
      "properties": {
        "@id": "way/477106398",
        "amenity": "townhall",
        "building": "yes"
      },
      "geometry": {
        "type": "Point",
        "coordinates": [
          34.22138, -0.14085
        ]
      },
      "id": "way/477106398"
    },
    {
      "type": "Feature",
      "properties": {
        "@id": "way/484431948",
        "addr:city": "Bungoma",
        "addr:street": "Moi Avenue",
        "amenity": "townhall",
        "building": "yes",
        "name": "Town Hall"
      },
      "geometry": {
        "type": "Point",
        "coordinates": [
          34.56100, 0.56717
        ]
      },
      "id": "way/484431948"
    },
    {
      "type": "Feature",
      "properties": {
        "@id": "way/567500056",
        "amenity": "townhall",
        "building": "yes",
        "name": "Bungoma County Assembly"
      },
      "geometry": {
        "type": "Point",
        "coordinates": [
          34.55899, 0.57003
        ]
      },
      "id": "way/567500056"
    },
    {
      "type": "Feature",
      "properties": {
        "@id": "way/639060950",
        "addr:city": "Mombasa",
        "addr:street": "Tom Mboya road",
        "amenity": "townhall",
        "building": "yes",
        "name": "Assembly Hall"
      },
      "geometry": {
        "type": "Point",
        "coordinates": [
          39.66725, -4.03765
        ]
      },
      "id": "way/639060950"
    },
    {
      "type": "Feature",
      "properties": {
        "@id": "way/971541231",
        "amenity": "townhall",
        "layer": "1",
        "name": "Gatundu South Sub-County Headquarters",
        "townhall:type": "township"
      },
      "geometry": {
        "type": "Point",
        "coordinates": [
          36.90443, -1.01431
        ]
      },
      "id": "way/971541231"
    },
    {
      "type": "Feature",
      "properties": {
        "@id": "node/45006022",
        "amenity": "townhall",
        "is_in": "Bungoma,Kenya",
        "name": "Bungoma"
      },
      "geometry": {
        "type": "Point",
        "coordinates": [
          34.5666,
          0.5666
        ]
      },
      "id": "node/45006022"
    },
    {
      "type": "Feature",
      "properties": {
        "@id": "node/976729875",
        "amenity": "townhall",
        "name": "Kilifi County Council"
      },
      "geometry": {
        "type": "Point",
        "coordinates": [
          39.8536417,
          -3.6342453
        ]
      },
      "id": "node/976729875"
    },
    {
      "type": "Feature",
      "properties": {
        "@id": "node/984385328",
        "amenity": "townhall",
        "name": "Kilifi Town Hall"
      },
      "geometry": {
        "type": "Point",
        "coordinates": [
          39.8568004,
          -3.6333905
        ]
      },
      "id": "node/984385328"
    },
    {
      "type": "Feature",
      "properties": {
        "@id": "node/1123201204",
        "amenity": "townhall",
        "name": "Huruma CDF Hall"
      },
      "geometry": {
        "type": "Point",
        "coordinates": [
          36.8711225,
          -1.2587957
        ]
      },
      "id": "node/1123201204"
    },
    {
      "type": "Feature",
      "properties": {
        "@id": "node/1315243393",
        "amenity": "townhall",
        "name": "County Hall Office"
      },
      "geometry": {
        "type": "Point",
        "coordinates": [
          40.1176131,
          -3.221739
        ]
      },
      "id": "node/1315243393"
    },
    {
      "type": "Feature",
      "properties": {
        "@id": "node/1427054141",
        "amenity": "townhall",
        "name": "ODM Office Rangwe"
      },
      "geometry": {
        "type": "Point",
        "coordinates": [
          34.5735616,
          -0.6002096
        ]
      },
      "id": "node/1427054141"
    },
    {
      "type": "Feature",
      "properties": {
        "@id": "node/1483304304",
        "amenity": "townhall",
        "name": "Social Hall"
      },
      "geometry": {
        "type": "Point",
        "coordinates": [
          36.838261,
          -1.3060555
        ]
      },
      "id": "node/1483304304"
    },
    {
      "type": "Feature",
      "properties": {
        "@id": "node/1980700033",
        "amenity": "townhall",
        "name": "Human Needs Project"
      },
      "geometry": {
        "type": "Point",
        "coordinates": [
          36.7815922,
          -1.3138154
        ]
      },
      "id": "node/1980700033"
    },
    {
      "type": "Feature",
      "properties": {
        "@id": "node/2155961178",
        "amenity": "townhall",
        "name": "Town Council of Molo",
        "office": "administrative",
        "project:eurosha_2012": "yes",
        "source": "Field survey",
        "source:date": "2013-02-15"
      },
      "geometry": {
        "type": "Point",
        "coordinates": [
          35.7281549,
          -0.244812
        ]
      },
      "id": "node/2155961178"
    },
    {
      "type": "Feature",
      "properties": {
        "@id": "node/2475305013",
        "addr:city": "Nyahururu",
        "addr:street": "Nyeri-Nyahururu Road",
        "amenity": "townhall",
        "name": "Nyahururu Municipal Council"
      },
      "geometry": {
        "type": "Point",
        "coordinates": [
          36.3634638,
          0.037623
        ]
      },
      "id": "node/2475305013"
    },
    {
      "type": "Feature",
      "properties": {
        "@id": "node/2665757131",
        "addr:city": "Eldoret",
        "addr:postcode": "30100",
        "addr:street": "Utalii Street",
        "amenity": "townhall",
        "name": "Uasin Gishu County Government"
      },
      "geometry": {
        "type": "Point",
        "coordinates": [
          35.2755648,
          0.5189804
        ]
      },
      "id": "node/2665757131"
    },
    {
      "type": "Feature",
      "properties": {
        "@id": "node/2864267873",
        "amenity": "townhall",
        "contact:mobile": "0728176075",
        "name": "Assistant chiefs camp",
        "place:district": "migwani",
        "place:division": "nguutani",
        "place:location": "thaananzau",
        "place:sub_location": "thaana",
        "place:village": "thaana"
      },
      "geometry": {
        "type": "Point",
        "coordinates": [
          37.8518534,
          -0.8178632
        ]
      },
      "id": "node/2864267873"
    },
    {
      "type": "Feature",
      "properties": {
        "@id": "node/2885939509",
        "amenity": "townhall",
        "building": "yes",
        "governance:facility_type": "administrative",
        "name": "D.O's office",
        "place:district": "mbeere south",
        "place:division": "makima",
        "place:location": "makima",
        "place:sub_location": "makima",
        "place:village": "ciamburi"
      },
      "geometry": {
        "type": "Point",
        "coordinates": [
          37.5797385,
          -0.7767895
        ]
      },
      "id": "node/2885939509"
    },
    {
      "type": "Feature",
      "properties": {
        "@id": "node/3220088292",
        "amenity": "townhall",
        "name": "Hill-Tea County Office"
      },
      "geometry": {
        "type": "Point",
        "coordinates": [
          35.5279635,
          0.0073695
        ]
      },
      "id": "node/3220088292"
    },
    {
      "type": "Feature",
      "properties": {
        "@id": "node/3283879908",
        "amenity": "townhall",
        "name": "mbondoni assistant chief office"
      },
      "geometry": {
        "type": "Point",
        "coordinates": [
          37.5500221,
          -0.8418737
        ]
      },
      "id": "node/3283879908"
    },
    {
      "type": "Feature",
      "properties": {
        "@id": "node/3603507676",
        "amenity": "townhall",
        "name": "County Government Headquarters"
      },
      "geometry": {
        "type": "Point",
        "coordinates": [
          39.4558787,
          -4.1793687
        ]
      },
      "id": "node/3603507676"
    },
    {
      "type": "Feature",
      "properties": {
        "@id": "node/5327793558",
        "addr:city": "Kiambu",
        "addr:street": "Kiuu River Road",
        "amenity": "townhall",
        "name": "Kiambu County Assembly"
      },
      "geometry": {
        "type": "Point",
        "coordinates": [
          36.8347459,
          -1.1720723
        ]
      },
      "id": "node/5327793558"
    },
    {
      "type": "Feature",
      "properties": {
        "@id": "node/5329702007",
        "amenity": "townhall",
        "name": "Kiambu Town Hall"
      },
      "geometry": {
        "type": "Point",
        "coordinates": [
          36.8251792,
          -1.1673945
        ]
      },
      "id": "node/5329702007"
    },
    {
      "type": "Feature",
      "properties": {
        "@id": "node/5588170693",
        "amenity": "townhall",
        "image": "https://mapkibera.github.io/counties/data/images/cache/5588170693/httpskchumanitarianresponseinfoattachmentoriginalmediafilemapkiberaattachments1524640116671jpg/orig.jpg",
        "name": "Nziu Social Hall",
        "opening_hours": "Mo-Su 8:00-10:00",
        "village": "Nziu",
        "wb_pb:id": "21748096",
        "wheelchair": "yes"
      },
      "geometry": {
        "type": "Point",
        "coordinates": [
          37.53738,
          -1.8177867
        ]
      },
      "id": "node/5588170693"
    },
    {
      "type": "Feature",
      "properties": {
        "@id": "node/5592138051",
        "amenity": "townhall",
        "image": "https://mapkibera.github.io/counties/data/images/cache/5592138051/httpskchumanitarianresponseinfoattachmentoriginalmediafilemapkiberaattachments1524648771021jpg/orig.jpg",
        "name": "Wote Social Hall",
        "opening_hours": "Mo-Fr 8:00-17:00",
        "village": "Kasarani",
        "wb_pb:id": "21743948",
        "wheelchair": "no"
      },
      "geometry": {
        "type": "Point",
        "coordinates": [
          37.6301158,
          -1.7787908
        ]
      },
      "id": "node/5592138051"
    },
    {
      "type": "Feature",
      "properties": {
        "@id": "node/5608972514",
        "amenity": "townhall",
        "name": "County Assembly"
      },
      "geometry": {
        "type": "Point",
        "coordinates": [
          37.6205373,
          -1.7900541
        ]
      },
      "id": "node/5608972514"
    },
    {
      "type": "Feature",
      "properties": {
        "@id": "node/5637308449",
        "amenity": "townhall",
        "image:pointofinterest": "https://kc.humanitarianresponse.info/attachment/original?media_file=mapkibera/attachments/1526893703651.jpg",
        "name": "Kivandini Social Hall",
        "opening_hours": "Mo-Fr 9:00-5:00",
        "type": "Social Hall",
        "wb_pb:id": "22942851",
        "wheelchair": "yes"
      },
      "geometry": {
        "type": "Point",
        "coordinates": [
          37.4574683,
          -1.6559475
        ]
      },
      "id": "node/5637308449"
    },
    {
      "type": "Feature",
      "properties": {
        "@id": "node/5641420328",
        "amenity": "townhall",
        "image:pointofinterest": "https://kc.humanitarianresponse.info/attachment/original?media_file=mapkibera/attachments/1526979313228.jpg",
        "name": "Mbooni Social Hall",
        "opening_hours": "Mo- Fr 6:00-10:00",
        "type": "social_hall",
        "wb_pb:id": "22956402",
        "wheelchair": "yes"
      },
      "geometry": {
        "type": "Point",
        "coordinates": [
          37.4475142,
          -1.6625263
        ]
      },
      "id": "node/5641420328"
    },
    {
      "type": "Feature",
      "properties": {
        "@id": "node/5769881537",
        "addr:city": "Mwingi",
        "addr:street": "C93",
        "amenity": "townhall",
        "name": "Mwingi Sub-county offices"
      },
      "geometry": {
        "type": "Point",
        "coordinates": [
          38.0599642,
          -0.9318002
        ]
      },
      "id": "node/5769881537"
    },
    {
      "type": "Feature",
      "properties": {
        "@id": "node/5781399424",
        "amenity": "townhall",
        "image:pointofinterest": "http://kc.humanitarianresponse.info/attachment/orginal?media_file=mapkibera/attachments/1532005260959.jpg",
        "image:project": "https://mapkibera.github.io/counties/data/images/cache/5781399424/httpkchumanitarianresponseinfoattachmentorginalmediafilemapkiberaattachments1532004667617jpg/orig.jpg",
        "name": "Baringo County Assembly",
        "wb_pb:id": "26199454"
      },
      "geometry": {
        "type": "Point",
        "coordinates": [
          35.7440683,
          0.4925662
        ]
      },
      "id": "node/5781399424"
    },
    {
      "type": "Feature",
      "properties": {
        "@id": "node/6106202816",
        "addr:city": "Kitale",
        "addr:street": "Moi Avenue",
        "amenity": "townhall",
        "name": "Town Hall"
      },
      "geometry": {
        "type": "Point",
        "coordinates": [
          35.001432,
          1.0154781
        ]
      },
      "id": "node/6106202816"
    },
    {
      "type": "Feature",
      "properties": {
        "@id": "node/6130562050",
        "addr:city": "Kisumu",
        "addr:street": "Otieno Oyoo Street",
        "amenity": "townhall",
        "name": "Aga Khan Hall"
      },
      "geometry": {
        "type": "Point",
        "coordinates": [
          34.7546082,
          -0.0980842
        ]
      },
      "id": "node/6130562050"
    },
    {
      "type": "Feature",
      "properties": {
        "@id": "node/6149305118",
        "addr:city": "Eldoret",
        "addr:street": "Utalii Street",
        "amenity": "townhall",
        "name": "Town Hall"
      },
      "geometry": {
        "type": "Point",
        "coordinates": [
          35.2754014,
          0.5192362
        ]
      },
      "id": "node/6149305118"
    },
    {
      "type": "Feature",
      "properties": {
        "@id": "node/6236068245",
        "addr:city": "Kitui",
        "addr:street": "Kibwezi - Kitui Road",
        "amenity": "townhall",
        "name": "Kitui Town Hall"
      },
      "geometry": {
        "type": "Point",
        "coordinates": [
          38.0120066,
          -1.3664813
        ]
      },
      "id": "node/6236068245"
    },
    {
      "type": "Feature",
      "properties": {
        "@id": "node/6241778035",
        "addr:city": "Nyahururu",
        "addr:street": "Koinange Road",
        "amenity": "townhall",
        "name": "Nyahururu Social Hall"
      },
      "geometry": {
        "type": "Point",
        "coordinates": [
          36.3586704,
          0.0326806
        ]
      },
      "id": "node/6241778035"
    },
    {
      "type": "Feature",
      "properties": {
        "@id": "node/6259798897",
        "addr:city": "Nairobi",
        "addr:street": "Embakasi Road",
        "amenity": "townhall",
        "name": "Embakasi Social Hall"
      },
      "geometry": {
        "type": "Point",
        "coordinates": [
          36.9128548,
          -1.3082312
        ]
      },
      "id": "node/6259798897"
    },
    {
      "type": "Feature",
      "properties": {
        "@id": "node/6406115787",
        "amenity": "townhall",
        "image:pointofinterest": "https://kc.humanitarianresponse.info/attachment/original?media_file=mapkibera/attachments/1531917205088.jpg",
        "image:project": "https://mapkibera.github.io/counties/data/images/cache/6406115787/httpskchumanitarianresponseinfoattachmentoriginalmediafilemapkiberaattachments1531919215224jpg/orig.jpg",
        "name": "YEPC kabarnet",
        "wb_pb:id": "26199372"
      },
      "geometry": {
        "type": "Point",
        "coordinates": [
          35.7415513,
          0.4922563
        ]
      },
      "id": "node/6406115787"
    },
    {
      "type": "Feature",
      "properties": {
        "@id": "node/6807425641",
        "amenity": "townhall",
        "image": "https://mapkibera.github.io/counties/data/images/cache/6807425641/httpskchumanitarianresponseinfoattachmentoriginalmediafilebaringocountyattachments1568710645395jpg/orig.jpg",
        "image:project": "https://mapkibera.github.io/counties/data/images/cache/6807425641/httpskchumanitarianresponseinfoattachmentoriginalmediafilebaringocountyattachments1568710898612jpg/orig.jpg",
        "is_in:village": "Mogotio",
        "name": "Office of the Governor Mogotio",
        "wb_pb:id": "193"
      },
      "geometry": {
        "type": "Point",
        "coordinates": [
          35.95931,
          -0.0239
        ]
      },
      "id": "node/6807425641"
    },
    {
      "type": "Feature",
      "properties": {
        "@id": "node/6807425642",
        "amenity": "townhall",
        "image": "https://kc.humanitarianresponse.info/attachment/original?media_file=mapkibera/attachments/1568704415576.jpg",
        "is_in:village": "Mogotio",
        "name": "Mogotio Chiefs Office"
      },
      "geometry": {
        "type": "Point",
        "coordinates": [
          35.96248,
          -0.02039
        ]
      },
      "id": "node/6807425642"
    },
    {
      "type": "Feature",
      "properties": {
        "@id": "node/6807425645",
        "amenity": "townhall",
        "image": "https://kc.humanitarianresponse.info/attachment/original?media_file=mapkibera/attachments/1568701633293.jpg",
        "is_in:village": "Mogotio",
        "name": "Mogotio Constituency Development Fund"
      },
      "geometry": {
        "type": "Point",
        "coordinates": [
          35.95843,
          -0.02696
        ]
      },
      "id": "node/6807425645"
    },
    {
      "type": "Feature",
      "properties": {
        "@id": "node/6807425646",
        "amenity": "townhall",
        "image": "https://mapkibera.github.io/counties/data/images/cache/6807425646/httpskchumanitarianresponseinfoattachmentoriginalmediafilebaringocountyattachments1568701770518jpg/orig.jpg",
        "image:project": "https://mapkibera.github.io/counties/data/images/cache/6807425646/httpskchumanitarianresponseinfoattachmentoriginalmediafilebaringocountyattachments1568701463635jpg/orig.jpg",
        "is_in:village": "Mogotio",
        "name": "Deputy County Commissioner Office",
        "wb_pb:id": "192"
      },
      "geometry": {
        "type": "Point",
        "coordinates": [
          35.95849,
          -0.02641
        ]
      },
      "id": "node/6807425646"
    },
    {
      "type": "Feature",
      "properties": {
        "@id": "node/6909005277",
        "amenity": "townhall",
        "image": "https://mapkibera.github.io/counties/data/images/cache/6909005277/httpskchumanitarianresponseinfoattachmentoriginalmediafilemapkiberaattachments1571747576746jpg/orig.jpg",
        "image:project": "https://mapkibera.github.io/counties/data/images/cache/6909005277/httpskchumanitarianresponseinfoattachmentoriginalmediafilemapkiberaattachments1571747729252jpg/orig.jpg",
        "image:project_inside": "https://kc.humanitarianresponse.info/attachment/original?media_file=mapkibera/attachments/1571747749132.jpg",
        "is_in:village": "Mwotot",
        "name": "West Pokot County Assembly Chambers",
        "wb_pb:id": "20"
      },
      "geometry": {
        "type": "Point",
        "coordinates": [
          35.12024,
          1.2401644
        ]
      },
      "id": "node/6909005277"
    }
  ]
}